{"type": "FeatureCollection", "fuente": "Open-Meteo Marine API (ERA5-Ocean / MFWAM) \u2014 CC BY 4.0", "estado": "inferido", "metodo": "media de J = rho g^2 Hm0^2 Te / (64 pi) sobre 4 ventanas estacionales de 2 dias en 2023, rejilla de 8 grados", "unidad": "kW/m", "features": [{"type": "Feature", "geometry": {"type": "Point", "coordinates": [-176.0, -64]}, "properties": {"oleaje_kw_m": 84.69, "hm0_m": 3.77, "te_s": 9.95, "horas": 192}}, {"type": "Feature", "geometry": {"type": "Point", "coordinates": [-168.0, -64]}, "properties": {"oleaje_kw_m": 68.74, "hm0_m": 3.4, "te_s": 10.02, "horas": 192}}, {"type": "Feature", "geometry": {"type": "Point", "coordinates": [-160.0, -64]}, "properties": {"oleaje_kw_m": 56.05, "hm0_m": 3.16, "te_s": 10.02, "horas": 192}}, {"type": "Feature", "geometry": {"type": "Point", "coordinates": [-152.0, -64]}, "properties": {"oleaje_kw_m": 57.09, "hm0_m": 3.4, "te_s": 9.44, "horas": 144}}, {"type": "Feature", "geometry": {"type": "Point", "coordinates": [-144.0, -64]}, "properties": {"oleaje_kw_m": 62.35, "hm0_m": 3.24, "te_s": 9.45, "horas": 144}}, {"type": "Feature", "geometry": {"type": "Point", "coordinates": [-136.0, -64]}, "properties": {"oleaje_kw_m": 63.82, "hm0_m": 3.15, "te_s": 9.46, "horas": 144}}, {"type": "Feature", "geometry": {"type": "Point", "coordinates": [-128.0, -64]}, "properties": {"oleaje_kw_m": 63.56, "hm0_m": 3.25, "te_s": 9.31, "horas": 144}}, {"type": "Feature", "geometry": {"type": "Point", "coordinates": [-120.0, -64]}, "properties": {"oleaje_kw_m": 54.15, "hm0_m": 3.2, "te_s": 9.09, "horas": 192}}, {"type": "Feature", "geometry": {"type": "Point", "coordinates": [-112.0, -64]}, "properties": {"oleaje_kw_m": 62.65, "hm0_m": 3.59, "te_s": 8.92, "horas": 192}}, {"type": "Feature", "geometry": {"type": "Point", "coordinates": [-104.0, -64]}, "properties": {"oleaje_kw_m": 72.18, "hm0_m": 3.89, "te_s": 9.11, "horas": 192}}, {"type": "Feature", "geometry": {"type": "Point", "coordinates": [-96.0, -64]}, "properties": {"oleaje_kw_m": 102.67, "hm0_m": 4.51, "te_s": 9.47, "horas": 192}}, {"type": "Feature", "geometry": {"type": "Point", "coordinates": [-88.0, -64]}, "properties": {"oleaje_kw_m": 144.1, "hm0_m": 5.11, "te_s": 9.92, "horas": 192}}, {"type": "Feature", "geometry": {"type": "Point", "coordinates": [-80.0, -64]}, "properties": {"oleaje_kw_m": 154.31, "hm0_m": 5.15, "te_s": 10.21, "horas": 192}}, {"type": "Feature", "geometry": {"type": "Point", "coordinates": [-72.0, -64]}, "properties": {"oleaje_kw_m": 130.97, "hm0_m": 4.73, "te_s": 10.3, "horas": 165}}, {"type": "Feature", "geometry": {"type": "Point", "coordinates": [-64.0, -64]}, "properties": {"oleaje_kw_m": 71.39, "hm0_m": 3.55, "te_s": 10.05, "horas": 192}}, {"type": "Feature", "geometry": {"type": "Point", "coordinates": [-56.0, -64]}, "properties": {"oleaje_kw_m": 4.02, "hm0_m": 1.19, "te_s": 4.53, "horas": 192}}, {"type": "Feature", "geometry": {"type": "Point", "coordinates": [-40.0, -64]}, "properties": {"oleaje_kw_m": 10.13, "hm0_m": 1.48, "te_s": 6.85, "horas": 96}}, {"type": "Feature", "geometry": {"type": "Point", "coordinates": [-32.0, -64]}, "properties": {"oleaje_kw_m": 10.52, "hm0_m": 1.44, "te_s": 6.87, "horas": 96}}, {"type": "Feature", "geometry": {"type": "Point", "coordinates": [-24.0, -64]}, "properties": {"oleaje_kw_m": 14.81, "hm0_m": 1.53, "te_s": 7.05, "horas": 96}}, {"type": "Feature", "geometry": {"type": "Point", "coordinates": [-16.0, -64]}, "properties": {"oleaje_kw_m": 20.45, "hm0_m": 1.98, "te_s": 7.5, "horas": 96}}, {"type": "Feature", "geometry": {"type": "Point", "coordinates": [-8.0, -64]}, "properties": {"oleaje_kw_m": 22.5, "hm0_m": 2.28, "te_s": 7.99, "horas": 96}}, {"type": "Feature", "geometry": {"type": "Point", "coordinates": [0.0, -64]}, "properties": {"oleaje_kw_m": 24.61, "hm0_m": 2.28, "te_s": 8.95, "horas": 96}}, {"type": "Feature", "geometry": {"type": "Point", "coordinates": [8.0, -64]}, "properties": {"oleaje_kw_m": 25.99, "hm0_m": 1.92, "te_s": 8.99, "horas": 96}}, {"type": "Feature", "geometry": {"type": "Point", "coordinates": [16.0, -64]}, "properties": {"oleaje_kw_m": 27.83, "hm0_m": 2.58, "te_s": 8.9, "horas": 96}}, {"type": "Feature", "geometry": {"type": "Point", "coordinates": [24.0, -64]}, "properties": {"oleaje_kw_m": 30.19, "hm0_m": 3.38, "te_s": 8.54, "horas": 96}}, {"type": "Feature", "geometry": {"type": "Point", "coordinates": [32.0, -64]}, "properties": {"oleaje_kw_m": 28.68, "hm0_m": 2.14, "te_s": 8.96, "horas": 96}}, {"type": "Feature", "geometry": {"type": "Point", "coordinates": [40.0, -64]}, "properties": {"oleaje_kw_m": 28.63, "hm0_m": 1.9, "te_s": 10.08, "horas": 117}}, {"type": "Feature", "geometry": {"type": "Point", "coordinates": [48.0, -64]}, "properties": {"oleaje_kw_m": 29.57, "hm0_m": 2.04, "te_s": 10.22, "horas": 144}}, {"type": "Feature", "geometry": {"type": "Point", "coordinates": [56.0, -64]}, "properties": {"oleaje_kw_m": 38.06, "hm0_m": 2.64, "te_s": 9.71, "horas": 96}}, {"type": "Feature", "geometry": {"type": "Point", "coordinates": [64.0, -64]}, "properties": {"oleaje_kw_m": 38.16, "hm0_m": 3.39, "te_s": 9.61, "horas": 96}}, {"type": "Feature", "geometry": {"type": "Point", "coordinates": [72.0, -64]}, "properties": {"oleaje_kw_m": 39.23, "hm0_m": 2.57, "te_s": 9.8, "horas": 96}}, {"type": "Feature", "geometry": {"type": "Point", "coordinates": [80.0, -64]}, "properties": {"oleaje_kw_m": 40.89, "hm0_m": 2.28, "te_s": 9.9, "horas": 96}}, {"type": "Feature", "geometry": {"type": "Point", "coordinates": [88.0, -64]}, "properties": {"oleaje_kw_m": 42.25, "hm0_m": 2.07, "te_s": 9.37, "horas": 96}}, {"type": "Feature", "geometry": {"type": "Point", "coordinates": [96.0, -64]}, "properties": {"oleaje_kw_m": 15.88, "hm0_m": 1.49, "te_s": 9.36, "horas": 69}}, {"type": "Feature", "geometry": {"type": "Point", "coordinates": [104.0, -64]}, "properties": {"oleaje_kw_m": 7.52, "hm0_m": 1.26, "te_s": 8.45, "horas": 96}}, {"type": "Feature", "geometry": {"type": "Point", "coordinates": [112.0, -64]}, "properties": {"oleaje_kw_m": 16.08, "hm0_m": 1.63, "te_s": 8.39, "horas": 96}}, {"type": "Feature", "geometry": {"type": "Point", "coordinates": [120.0, -64]}, "properties": {"oleaje_kw_m": 44.92, "hm0_m": 2.26, "te_s": 9.2, "horas": 96}}, {"type": "Feature", "geometry": {"type": "Point", "coordinates": [128.0, -64]}, "properties": {"oleaje_kw_m": 85.99, "hm0_m": 2.96, "te_s": 9.68, "horas": 96}}, {"type": "Feature", "geometry": {"type": "Point", "coordinates": [136.0, -64]}, "properties": {"oleaje_kw_m": 119.08, "hm0_m": 3.5, "te_s": 9.61, "horas": 96}}, {"type": "Feature", "geometry": {"type": "Point", "coordinates": [144.0, -64]}, "properties": {"oleaje_kw_m": 94.39, "hm0_m": 3.4, "te_s": 9.59, "horas": 96}}, {"type": "Feature", "geometry": {"type": "Point", "coordinates": [152.0, -64]}, "properties": {"oleaje_kw_m": 88.01, "hm0_m": 3.32, "te_s": 9.65, "horas": 96}}, {"type": "Feature", "geometry": {"type": "Point", "coordinates": [160.0, -64]}, "properties": {"oleaje_kw_m": 108.72, "hm0_m": 3.54, "te_s": 10.45, "horas": 144}}, {"type": "Feature", "geometry": {"type": "Point", "coordinates": [168.0, -64]}, "properties": {"oleaje_kw_m": 104.33, "hm0_m": 3.72, "te_s": 10.25, "horas": 144}}, {"type": "Feature", "geometry": {"type": "Point", "coordinates": [176.0, -64]}, "properties": {"oleaje_kw_m": 90.79, "hm0_m": 3.99, "te_s": 10.14, "horas": 192}}, {"type": "Feature", "geometry": {"type": "Point", "coordinates": [-176.0, -56]}, "properties": {"oleaje_kw_m": 87.69, "hm0_m": 4.0, "te_s": 10.02, "horas": 192}}, {"type": "Feature", "geometry": {"type": "Point", "coordinates": [-168.0, -56]}, "properties": {"oleaje_kw_m": 95.94, "hm0_m": 4.15, "te_s": 10.05, "horas": 192}}, {"type": "Feature", "geometry": {"type": "Point", "coordinates": [-160.0, -56]}, "properties": {"oleaje_kw_m": 92.43, "hm0_m": 4.08, "te_s": 9.78, "horas": 192}}, {"type": "Feature", "geometry": {"type": "Point", "coordinates": [-152.0, -56]}, "properties": {"oleaje_kw_m": 65.96, "hm0_m": 3.5, "te_s": 9.62, "horas": 192}}, {"type": "Feature", "geometry": {"type": "Point", "coordinates": [-144.0, -56]}, "properties": {"oleaje_kw_m": 51.14, "hm0_m": 3.09, "te_s": 10.12, "horas": 192}}, {"type": "Feature", "geometry": {"type": "Point", "coordinates": [-136.0, -56]}, "properties": {"oleaje_kw_m": 49.57, "hm0_m": 3.06, "te_s": 9.58, "horas": 192}}, {"type": "Feature", "geometry": {"type": "Point", "coordinates": [-128.0, -56]}, "properties": {"oleaje_kw_m": 56.21, "hm0_m": 3.3, "te_s": 9.32, "horas": 192}}, {"type": "Feature", "geometry": {"type": "Point", "coordinates": [-120.0, -56]}, "properties": {"oleaje_kw_m": 65.95, "hm0_m": 3.64, "te_s": 9.03, "horas": 192}}, {"type": "Feature", "geometry": {"type": "Point", "coordinates": [-112.0, -56]}, "properties": {"oleaje_kw_m": 78.31, "hm0_m": 3.95, "te_s": 9.32, "horas": 192}}, {"type": "Feature", "geometry": {"type": "Point", "coordinates": [-104.0, -56]}, "properties": {"oleaje_kw_m": 98.38, "hm0_m": 4.44, "te_s": 9.61, "horas": 192}}, {"type": "Feature", "geometry": {"type": "Point", "coordinates": [-96.0, -56]}, "properties": {"oleaje_kw_m": 117.81, "hm0_m": 4.82, "te_s": 9.99, "horas": 192}}, {"type": "Feature", "geometry": {"type": "Point", "coordinates": [-88.0, -56]}, "properties": {"oleaje_kw_m": 123.91, "hm0_m": 4.92, "te_s": 10.19, "horas": 192}}, {"type": "Feature", "geometry": {"type": "Point", "coordinates": [-80.0, -56]}, "properties": {"oleaje_kw_m": 116.82, "hm0_m": 4.8, "te_s": 10.12, "horas": 192}}, {"type": "Feature", "geometry": {"type": "Point", "coordinates": [-72.0, -56]}, "properties": {"oleaje_kw_m": 115.25, "hm0_m": 4.76, "te_s": 10.03, "horas": 192}}, {"type": "Feature", "geometry": {"type": "Point", "coordinates": [-64.0, -56]}, "properties": {"oleaje_kw_m": 70.86, "hm0_m": 3.62, "te_s": 10.15, "horas": 192}}, {"type": "Feature", "geometry": {"type": "Point", "coordinates": [-56.0, -56]}, "properties": {"oleaje_kw_m": 51.94, "hm0_m": 3.13, "te_s": 9.83, "horas": 192}}, {"type": "Feature", "geometry": {"type": "Point", "coordinates": [-48.0, -56]}, "properties": {"oleaje_kw_m": 36.42, "hm0_m": 2.66, "te_s": 9.57, "horas": 192}}, {"type": "Feature", "geometry": {"type": "Point", "coordinates": [-40.0, -56]}, "properties": {"oleaje_kw_m": 25.79, "hm0_m": 2.38, "te_s": 8.54, "horas": 192}}, {"type": "Feature", "geometry": {"type": "Point", "coordinates": [-32.0, -56]}, "properties": {"oleaje_kw_m": 26.73, "hm0_m": 2.48, "te_s": 8.03, "horas": 192}}, {"type": "Feature", "geometry": {"type": "Point", "coordinates": [-24.0, -56]}, "properties": {"oleaje_kw_m": 33.72, "hm0_m": 2.68, "te_s": 7.89, "horas": 192}}, {"type": "Feature", "geometry": {"type": "Point", "coordinates": [-16.0, -56]}, "properties": {"oleaje_kw_m": 48.89, "hm0_m": 3.1, "te_s": 8.44, "horas": 192}}, {"type": "Feature", "geometry": {"type": "Point", "coordinates": [-8.0, -56]}, "properties": {"oleaje_kw_m": 56.21, "hm0_m": 3.37, "te_s": 8.83, "horas": 192}}, {"type": "Feature", "geometry": {"type": "Point", "coordinates": [0.0, -56]}, "properties": {"oleaje_kw_m": 57.11, "hm0_m": 3.43, "te_s": 9.09, "horas": 192}}, {"type": "Feature", "geometry": {"type": "Point", "coordinates": [8.0, -56]}, "properties": {"oleaje_kw_m": 58.29, "hm0_m": 3.43, "te_s": 9.28, "horas": 192}}, {"type": "Feature", "geometry": {"type": "Point", "coordinates": [16.0, -56]}, "properties": {"oleaje_kw_m": 57.82, "hm0_m": 3.34, "te_s": 9.44, "horas": 192}}, {"type": "Feature", "geometry": {"type": "Point", "coordinates": [24.0, -56]}, "properties": {"oleaje_kw_m": 53.79, "hm0_m": 3.21, "te_s": 9.49, "horas": 192}}, {"type": "Feature", "geometry": {"type": "Point", "coordinates": [32.0, -56]}, "properties": {"oleaje_kw_m": 61.5, "hm0_m": 3.54, "te_s": 9.38, "horas": 192}}, {"type": "Feature", "geometry": {"type": "Point", "coordinates": [40.0, -56]}, "properties": {"oleaje_kw_m": 76.86, "hm0_m": 3.97, "te_s": 9.34, "horas": 192}}, {"type": "Feature", "geometry": {"type": "Point", "coordinates": [48.0, -56]}, "properties": {"oleaje_kw_m": 82.75, "hm0_m": 4.1, "te_s": 9.17, "horas": 192}}, {"type": "Feature", "geometry": {"type": "Point", "coordinates": [56.0, -56]}, "properties": {"oleaje_kw_m": 71.86, "hm0_m": 3.85, "te_s": 9.18, "horas": 192}}, {"type": "Feature", "geometry": {"type": "Point", "coordinates": [64.0, -56]}, "properties": {"oleaje_kw_m": 62.5, "hm0_m": 3.45, "te_s": 9.5, "horas": 192}}, {"type": "Feature", "geometry": {"type": "Point", "coordinates": [72.0, -56]}, "properties": {"oleaje_kw_m": 69.72, "hm0_m": 3.52, "te_s": 9.9, "horas": 192}}, {"type": "Feature", "geometry": {"type": "Point", "coordinates": [80.0, -56]}, "properties": {"oleaje_kw_m": 73.42, "hm0_m": 3.74, "te_s": 9.93, "horas": 192}}, {"type": "Feature", "geometry": {"type": "Point", "coordinates": [88.0, -56]}, "properties": {"oleaje_kw_m": 73.66, "hm0_m": 3.68, "te_s": 9.95, "horas": 192}}, {"type": "Feature", "geometry": {"type": "Point", "coordinates": [96.0, -56]}, "properties": {"oleaje_kw_m": 85.77, "hm0_m": 3.92, "te_s": 10.41, "horas": 192}}, {"type": "Feature", "geometry": {"type": "Point", "coordinates": [104.0, -56]}, "properties": {"oleaje_kw_m": 94.38, "hm0_m": 3.98, "te_s": 10.83, "horas": 192}}, {"type": "Feature", "geometry": {"type": "Point", "coordinates": [112.0, -56]}, "properties": {"oleaje_kw_m": 97.12, "hm0_m": 3.98, "te_s": 10.85, "horas": 192}}, {"type": "Feature", "geometry": {"type": "Point", "coordinates": [120.0, -56]}, "properties": {"oleaje_kw_m": 98.0, "hm0_m": 4.05, "te_s": 10.46, "horas": 192}}, {"type": "Feature", "geometry": {"type": "Point", "coordinates": [128.0, -56]}, "properties": {"oleaje_kw_m": 101.77, "hm0_m": 4.29, "te_s": 10.05, "horas": 192}}, {"type": "Feature", "geometry": {"type": "Point", "coordinates": [136.0, -56]}, "properties": {"oleaje_kw_m": 120.75, "hm0_m": 4.73, "te_s": 9.98, "horas": 192}}, {"type": "Feature", "geometry": {"type": "Point", "coordinates": [144.0, -56]}, "properties": {"oleaje_kw_m": 109.67, "hm0_m": 4.61, "te_s": 9.91, "horas": 192}}, {"type": "Feature", "geometry": {"type": "Point", "coordinates": [152.0, -56]}, "properties": {"oleaje_kw_m": 102.9, "hm0_m": 4.43, "te_s": 9.86, "horas": 192}}, {"type": "Feature", "geometry": {"type": "Point", "coordinates": [160.0, -56]}, "properties": {"oleaje_kw_m": 98.67, "hm0_m": 4.3, "te_s": 9.96, "horas": 192}}, {"type": "Feature", "geometry": {"type": "Point", "coordinates": [168.0, -56]}, "properties": {"oleaje_kw_m": 99.62, "hm0_m": 4.05, "te_s": 9.99, "horas": 192}}, {"type": "Feature", "geometry": {"type": "Point", "coordinates": [176.0, -56]}, "properties": {"oleaje_kw_m": 94.48, "hm0_m": 4.01, "te_s": 10.11, "horas": 192}}, {"type": "Feature", "geometry": {"type": "Point", "coordinates": [-176.0, -48]}, "properties": {"oleaje_kw_m": 48.89, "hm0_m": 3.13, "te_s": 9.81, "horas": 192}}, {"type": "Feature", "geometry": {"type": "Point", "coordinates": [-168.0, -48]}, "properties": {"oleaje_kw_m": 72.81, "hm0_m": 3.74, "te_s": 9.85, "horas": 192}}, {"type": "Feature", "geometry": {"type": "Point", "coordinates": [-160.0, -48]}, "properties": {"oleaje_kw_m": 94.84, "hm0_m": 4.13, "te_s": 9.81, "horas": 192}}, {"type": "Feature", "geometry": {"type": "Point", "coordinates": [-152.0, -48]}, "properties": {"oleaje_kw_m": 83.41, "hm0_m": 4.02, "te_s": 9.53, "horas": 192}}, {"type": "Feature", "geometry": {"type": "Point", "coordinates": [-144.0, -48]}, "properties": {"oleaje_kw_m": 59.87, "hm0_m": 3.43, "te_s": 9.68, "horas": 192}}, {"type": "Feature", "geometry": {"type": "Point", "coordinates": [-136.0, -48]}, "properties": {"oleaje_kw_m": 62.78, "hm0_m": 3.46, "te_s": 9.5, "horas": 192}}, {"type": "Feature", "geometry": {"type": "Point", "coordinates": [-128.0, -48]}, "properties": {"oleaje_kw_m": 58.83, "hm0_m": 3.31, "te_s": 9.48, "horas": 192}}, {"type": "Feature", "geometry": {"type": "Point", "coordinates": [-120.0, -48]}, "properties": {"oleaje_kw_m": 53.86, "hm0_m": 3.3, "te_s": 9.67, "horas": 192}}, {"type": "Feature", "geometry": {"type": "Point", "coordinates": [-112.0, -48]}, "properties": {"oleaje_kw_m": 48.58, "hm0_m": 3.1, "te_s": 9.72, "horas": 192}}, {"type": "Feature", "geometry": {"type": "Point", "coordinates": [-104.0, -48]}, "properties": {"oleaje_kw_m": 52.15, "hm0_m": 3.14, "te_s": 9.89, "horas": 192}}, {"type": "Feature", "geometry": {"type": "Point", "coordinates": [-96.0, -48]}, "properties": {"oleaje_kw_m": 59.01, "hm0_m": 3.31, "te_s": 10.21, "horas": 192}}, {"type": "Feature", "geometry": {"type": "Point", "coordinates": [-88.0, -48]}, "properties": {"oleaje_kw_m": 63.54, "hm0_m": 3.41, "te_s": 10.31, "horas": 192}}, {"type": "Feature", "geometry": {"type": "Point", "coordinates": [-80.0, -48]}, "properties": {"oleaje_kw_m": 58.64, "hm0_m": 3.31, "te_s": 10.22, "horas": 192}}, {"type": "Feature", "geometry": {"type": "Point", "coordinates": [-64.0, -48]}, "properties": {"oleaje_kw_m": 7.81, "hm0_m": 1.42, "te_s": 7.0, "horas": 192}}, {"type": "Feature", "geometry": {"type": "Point", "coordinates": [-56.0, -48]}, "properties": {"oleaje_kw_m": 9.67, "hm0_m": 1.53, "te_s": 7.94, "horas": 192}}, {"type": "Feature", "geometry": {"type": "Point", "coordinates": [-48.0, -48]}, "properties": {"oleaje_kw_m": 22.35, "hm0_m": 2.12, "te_s": 8.81, "horas": 192}}, {"type": "Feature", "geometry": {"type": "Point", "coordinates": [-40.0, -48]}, "properties": {"oleaje_kw_m": 28.97, "hm0_m": 2.46, "te_s": 8.6, "horas": 192}}, {"type": "Feature", "geometry": {"type": "Point", "coordinates": [-32.0, -48]}, "properties": {"oleaje_kw_m": 26.95, "hm0_m": 2.43, "te_s": 8.31, "horas": 192}}, {"type": "Feature", "geometry": {"type": "Point", "coordinates": [-24.0, -48]}, "properties": {"oleaje_kw_m": 24.35, "hm0_m": 2.33, "te_s": 7.98, "horas": 192}}, {"type": "Feature", "geometry": {"type": "Point", "coordinates": [-16.0, -48]}, "properties": {"oleaje_kw_m": 25.43, "hm0_m": 2.35, "te_s": 8.29, "horas": 192}}, {"type": "Feature", "geometry": {"type": "Point", "coordinates": [-8.0, -48]}, "properties": {"oleaje_kw_m": 33.5, "hm0_m": 2.62, "te_s": 8.88, "horas": 192}}, {"type": "Feature", "geometry": {"type": "Point", "coordinates": [0.0, -48]}, "properties": {"oleaje_kw_m": 52.85, "hm0_m": 3.21, "te_s": 9.06, "horas": 192}}, {"type": "Feature", "geometry": {"type": "Point", "coordinates": [8.0, -48]}, "properties": {"oleaje_kw_m": 67.78, "hm0_m": 3.6, "te_s": 9.38, "horas": 192}}, {"type": "Feature", "geometry": {"type": "Point", "coordinates": [16.0, -48]}, "properties": {"oleaje_kw_m": 70.23, "hm0_m": 3.64, "te_s": 9.38, "horas": 192}}, {"type": "Feature", "geometry": {"type": "Point", "coordinates": [24.0, -48]}, "properties": {"oleaje_kw_m": 70.6, "hm0_m": 3.64, "te_s": 9.09, "horas": 192}}, {"type": "Feature", "geometry": {"type": "Point", "coordinates": [32.0, -48]}, "properties": {"oleaje_kw_m": 85.58, "hm0_m": 3.91, "te_s": 9.39, "horas": 192}}, {"type": "Feature", "geometry": {"type": "Point", "coordinates": [40.0, -48]}, "properties": {"oleaje_kw_m": 80.53, "hm0_m": 3.76, "te_s": 9.13, "horas": 192}}, {"type": "Feature", "geometry": {"type": "Point", "coordinates": [48.0, -48]}, "properties": {"oleaje_kw_m": 75.65, "hm0_m": 3.75, "te_s": 9.15, "horas": 192}}, {"type": "Feature", "geometry": {"type": "Point", "coordinates": [56.0, -48]}, "properties": {"oleaje_kw_m": 84.05, "hm0_m": 4.0, "te_s": 9.34, "horas": 192}}, {"type": "Feature", "geometry": {"type": "Point", "coordinates": [64.0, -48]}, "properties": {"oleaje_kw_m": 94.04, "hm0_m": 4.12, "te_s": 9.59, "horas": 192}}, {"type": "Feature", "geometry": {"type": "Point", "coordinates": [72.0, -48]}, "properties": {"oleaje_kw_m": 65.09, "hm0_m": 3.54, "te_s": 8.92, "horas": 192}}, {"type": "Feature", "geometry": {"type": "Point", "coordinates": [80.0, -48]}, "properties": {"oleaje_kw_m": 109.04, "hm0_m": 4.41, "te_s": 9.87, "horas": 192}}, {"type": "Feature", "geometry": {"type": "Point", "coordinates": [88.0, -48]}, "properties": {"oleaje_kw_m": 151.03, "hm0_m": 5.15, "te_s": 10.11, "horas": 192}}, {"type": "Feature", "geometry": {"type": "Point", "coordinates": [96.0, -48]}, "properties": {"oleaje_kw_m": 173.18, "hm0_m": 5.51, "te_s": 10.54, "horas": 192}}, {"type": "Feature", "geometry": {"type": "Point", "coordinates": [104.0, -48]}, "properties": {"oleaje_kw_m": 152.11, "hm0_m": 5.18, "te_s": 10.44, "horas": 192}}, {"type": "Feature", "geometry": {"type": "Point", "coordinates": [112.0, -48]}, "properties": {"oleaje_kw_m": 121.15, "hm0_m": 4.71, "te_s": 10.18, "horas": 192}}, {"type": "Feature", "geometry": {"type": "Point", "coordinates": [120.0, -48]}, "properties": {"oleaje_kw_m": 125.01, "hm0_m": 4.74, "te_s": 10.21, "horas": 192}}, {"type": "Feature", "geometry": {"type": "Point", "coordinates": [128.0, -48]}, "properties": {"oleaje_kw_m": 141.89, "hm0_m": 5.08, "te_s": 10.11, "horas": 192}}, {"type": "Feature", "geometry": {"type": "Point", "coordinates": [136.0, -48]}, "properties": {"oleaje_kw_m": 128.56, "hm0_m": 4.77, "te_s": 10.01, "horas": 192}}, {"type": "Feature", "geometry": {"type": "Point", "coordinates": [144.0, -48]}, "properties": {"oleaje_kw_m": 118.59, "hm0_m": 4.46, "te_s": 10.46, "horas": 192}}, {"type": "Feature", "geometry": {"type": "Point", "coordinates": [152.0, -48]}, "properties": {"oleaje_kw_m": 121.95, "hm0_m": 4.59, "te_s": 10.32, "horas": 192}}, {"type": "Feature", "geometry": {"type": "Point", "coordinates": [160.0, -48]}, "properties": {"oleaje_kw_m": 109.77, "hm0_m": 4.52, "te_s": 10.04, "horas": 192}}, {"type": "Feature", "geometry": {"type": "Point", "coordinates": [168.0, -48]}, "properties": {"oleaje_kw_m": 57.29, "hm0_m": 3.24, "te_s": 8.97, "horas": 192}}, {"type": "Feature", "geometry": {"type": "Point", "coordinates": [176.0, -48]}, "properties": {"oleaje_kw_m": 45.79, "hm0_m": 2.76, "te_s": 10.04, "horas": 192}}, {"type": "Feature", "geometry": {"type": "Point", "coordinates": [-176.0, -40]}, "properties": {"oleaje_kw_m": 28.91, "hm0_m": 2.53, "te_s": 8.69, "horas": 192}}, {"type": "Feature", "geometry": {"type": "Point", "coordinates": [-168.0, -40]}, "properties": {"oleaje_kw_m": 42.8, "hm0_m": 2.97, "te_s": 9.28, "horas": 192}}, {"type": "Feature", "geometry": {"type": "Point", "coordinates": [-160.0, -40]}, "properties": {"oleaje_kw_m": 57.36, "hm0_m": 3.23, "te_s": 10.05, "horas": 192}}, {"type": "Feature", "geometry": {"type": "Point", "coordinates": [-152.0, -40]}, "properties": {"oleaje_kw_m": 62.51, "hm0_m": 3.44, "te_s": 10.26, "horas": 192}}, {"type": "Feature", "geometry": {"type": "Point", "coordinates": [-144.0, -40]}, "properties": {"oleaje_kw_m": 50.52, "hm0_m": 3.05, "te_s": 10.24, "horas": 192}}, {"type": "Feature", "geometry": {"type": "Point", "coordinates": [-136.0, -40]}, "properties": {"oleaje_kw_m": 41.02, "hm0_m": 2.72, "te_s": 10.17, "horas": 192}}, {"type": "Feature", "geometry": {"type": "Point", "coordinates": [-128.0, -40]}, "properties": {"oleaje_kw_m": 48.35, "hm0_m": 3.1, "te_s": 9.56, "horas": 192}}, {"type": "Feature", "geometry": {"type": "Point", "coordinates": [-120.0, -40]}, "properties": {"oleaje_kw_m": 55.14, "hm0_m": 3.19, "te_s": 9.74, "horas": 192}}, {"type": "Feature", "geometry": {"type": "Point", "coordinates": [-112.0, -40]}, "properties": {"oleaje_kw_m": 45.12, "hm0_m": 2.81, "te_s": 10.31, "horas": 192}}, {"type": "Feature", "geometry": {"type": "Point", "coordinates": [-104.0, -40]}, "properties": {"oleaje_kw_m": 40.54, "hm0_m": 2.68, "te_s": 10.58, "horas": 192}}, {"type": "Feature", "geometry": {"type": "Point", "coordinates": [-96.0, -40]}, "properties": {"oleaje_kw_m": 50.03, "hm0_m": 2.73, "te_s": 11.18, "horas": 192}}, {"type": "Feature", "geometry": {"type": "Point", "coordinates": [-88.0, -40]}, "properties": {"oleaje_kw_m": 39.01, "hm0_m": 2.54, "te_s": 10.64, "horas": 192}}, {"type": "Feature", "geometry": {"type": "Point", "coordinates": [-80.0, -40]}, "properties": {"oleaje_kw_m": 32.83, "hm0_m": 2.52, "te_s": 9.96, "horas": 192}}, {"type": "Feature", "geometry": {"type": "Point", "coordinates": [-56.0, -40]}, "properties": {"oleaje_kw_m": 15.07, "hm0_m": 1.75, "te_s": 8.3, "horas": 192}}, {"type": "Feature", "geometry": {"type": "Point", "coordinates": [-48.0, -40]}, "properties": {"oleaje_kw_m": 26.21, "hm0_m": 2.24, "te_s": 8.82, "horas": 192}}, {"type": "Feature", "geometry": {"type": "Point", "coordinates": [-40.0, -40]}, "properties": {"oleaje_kw_m": 31.38, "hm0_m": 2.57, "te_s": 8.75, "horas": 192}}, {"type": "Feature", "geometry": {"type": "Point", "coordinates": [-32.0, -40]}, "properties": {"oleaje_kw_m": 38.61, "hm0_m": 2.9, "te_s": 8.82, "horas": 192}}, {"type": "Feature", "geometry": {"type": "Point", "coordinates": [-24.0, -40]}, "properties": {"oleaje_kw_m": 52.04, "hm0_m": 3.28, "te_s": 9.01, "horas": 192}}, {"type": "Feature", "geometry": {"type": "Point", "coordinates": [-16.0, -40]}, "properties": {"oleaje_kw_m": 48.16, "hm0_m": 3.16, "te_s": 8.89, "horas": 192}}, {"type": "Feature", "geometry": {"type": "Point", "coordinates": [-8.0, -40]}, "properties": {"oleaje_kw_m": 50.32, "hm0_m": 3.24, "te_s": 8.58, "horas": 192}}, {"type": "Feature", "geometry": {"type": "Point", "coordinates": [0.0, -40]}, "properties": {"oleaje_kw_m": 54.21, "hm0_m": 3.23, "te_s": 8.97, "horas": 192}}, {"type": "Feature", "geometry": {"type": "Point", "coordinates": [8.0, -40]}, "properties": {"oleaje_kw_m": 45.5, "hm0_m": 2.92, "te_s": 9.76, "horas": 192}}, {"type": "Feature", "geometry": {"type": "Point", "coordinates": [16.0, -40]}, "properties": {"oleaje_kw_m": 57.74, "hm0_m": 3.33, "te_s": 9.87, "horas": 192}}, {"type": "Feature", "geometry": {"type": "Point", "coordinates": [24.0, -40]}, "properties": {"oleaje_kw_m": 68.26, "hm0_m": 3.51, "te_s": 9.87, "horas": 192}}, {"type": "Feature", "geometry": {"type": "Point", "coordinates": [32.0, -40]}, "properties": {"oleaje_kw_m": 85.11, "hm0_m": 3.82, "te_s": 9.81, "horas": 192}}, {"type": "Feature", "geometry": {"type": "Point", "coordinates": [40.0, -40]}, "properties": {"oleaje_kw_m": 85.36, "hm0_m": 3.62, "te_s": 10.04, "horas": 192}}, {"type": "Feature", "geometry": {"type": "Point", "coordinates": [48.0, -40]}, "properties": {"oleaje_kw_m": 92.48, "hm0_m": 3.79, "te_s": 9.67, "horas": 192}}, {"type": "Feature", "geometry": {"type": "Point", "coordinates": [56.0, -40]}, "properties": {"oleaje_kw_m": 73.99, "hm0_m": 3.52, "te_s": 9.51, "horas": 192}}, {"type": "Feature", "geometry": {"type": "Point", "coordinates": [64.0, -40]}, "properties": {"oleaje_kw_m": 104.23, "hm0_m": 4.09, "te_s": 10.09, "horas": 192}}, {"type": "Feature", "geometry": {"type": "Point", "coordinates": [72.0, -40]}, "properties": {"oleaje_kw_m": 120.36, "hm0_m": 4.21, "te_s": 10.39, "horas": 192}}, {"type": "Feature", "geometry": {"type": "Point", "coordinates": [80.0, -40]}, "properties": {"oleaje_kw_m": 112.84, "hm0_m": 4.11, "te_s": 10.5, "horas": 192}}, {"type": "Feature", "geometry": {"type": "Point", "coordinates": [88.0, -40]}, "properties": {"oleaje_kw_m": 105.99, "hm0_m": 4.25, "te_s": 10.25, "horas": 192}}, {"type": "Feature", "geometry": {"type": "Point", "coordinates": [96.0, -40]}, "properties": {"oleaje_kw_m": 103.91, "hm0_m": 4.37, "te_s": 10.07, "horas": 192}}, {"type": "Feature", "geometry": {"type": "Point", "coordinates": [104.0, -40]}, "properties": {"oleaje_kw_m": 100.26, "hm0_m": 4.27, "te_s": 9.76, "horas": 192}}, {"type": "Feature", "geometry": {"type": "Point", "coordinates": [112.0, -40]}, "properties": {"oleaje_kw_m": 90.61, "hm0_m": 4.05, "te_s": 9.86, "horas": 192}}, {"type": "Feature", "geometry": {"type": "Point", "coordinates": [120.0, -40]}, "properties": {"oleaje_kw_m": 93.29, "hm0_m": 4.04, "te_s": 10.21, "horas": 192}}, {"type": "Feature", "geometry": {"type": "Point", "coordinates": [128.0, -40]}, "properties": {"oleaje_kw_m": 92.65, "hm0_m": 4.04, "te_s": 10.31, "horas": 192}}, {"type": "Feature", "geometry": {"type": "Point", "coordinates": [136.0, -40]}, "properties": {"oleaje_kw_m": 93.18, "hm0_m": 3.98, "te_s": 10.91, "horas": 192}}, {"type": "Feature", "geometry": {"type": "Point", "coordinates": [144.0, -40]}, "properties": {"oleaje_kw_m": 68.9, "hm0_m": 3.49, "te_s": 10.68, "horas": 192}}, {"type": "Feature", "geometry": {"type": "Point", "coordinates": [152.0, -40]}, "properties": {"oleaje_kw_m": 41.58, "hm0_m": 2.98, "te_s": 8.96, "horas": 192}}, {"type": "Feature", "geometry": {"type": "Point", "coordinates": [160.0, -40]}, "properties": {"oleaje_kw_m": 64.75, "hm0_m": 3.33, "te_s": 10.62, "horas": 192}}, {"type": "Feature", "geometry": {"type": "Point", "coordinates": [168.0, -40]}, "properties": {"oleaje_kw_m": 64.42, "hm0_m": 3.38, "te_s": 10.37, "horas": 192}}, {"type": "Feature", "geometry": {"type": "Point", "coordinates": [-176.0, -32]}, "properties": {"oleaje_kw_m": 34.36, "hm0_m": 2.7, "te_s": 8.88, "horas": 192}}, {"type": "Feature", "geometry": {"type": "Point", "coordinates": [-168.0, -32]}, "properties": {"oleaje_kw_m": 40.07, "hm0_m": 2.89, "te_s": 9.33, "horas": 192}}, {"type": "Feature", "geometry": {"type": "Point", "coordinates": [-160.0, -32]}, "properties": {"oleaje_kw_m": 48.79, "hm0_m": 3.11, "te_s": 9.83, "horas": 192}}, {"type": "Feature", "geometry": {"type": "Point", "coordinates": [-152.0, -32]}, "properties": {"oleaje_kw_m": 46.54, "hm0_m": 2.96, "te_s": 10.32, "horas": 192}}, {"type": "Feature", "geometry": {"type": "Point", "coordinates": [-144.0, -32]}, "properties": {"oleaje_kw_m": 38.29, "hm0_m": 2.57, "te_s": 10.59, "horas": 192}}, {"type": "Feature", "geometry": {"type": "Point", "coordinates": [-136.0, -32]}, "properties": {"oleaje_kw_m": 31.25, "hm0_m": 2.26, "te_s": 10.83, "horas": 192}}, {"type": "Feature", "geometry": {"type": "Point", "coordinates": [-128.0, -32]}, "properties": {"oleaje_kw_m": 36.06, "hm0_m": 2.54, "te_s": 10.2, "horas": 192}}, {"type": "Feature", "geometry": {"type": "Point", "coordinates": [-120.0, -32]}, "properties": {"oleaje_kw_m": 31.17, "hm0_m": 2.47, "te_s": 9.83, "horas": 192}}, {"type": "Feature", "geometry": {"type": "Point", "coordinates": [-112.0, -32]}, "properties": {"oleaje_kw_m": 27.28, "hm0_m": 2.39, "te_s": 9.6, "horas": 192}}, {"type": "Feature", "geometry": {"type": "Point", "coordinates": [-104.0, -32]}, "properties": {"oleaje_kw_m": 32.87, "hm0_m": 2.46, "te_s": 10.16, "horas": 192}}, {"type": "Feature", "geometry": {"type": "Point", "coordinates": [-96.0, -32]}, "properties": {"oleaje_kw_m": 36.07, "hm0_m": 2.54, "te_s": 9.69, "horas": 192}}, {"type": "Feature", "geometry": {"type": "Point", "coordinates": [-88.0, -32]}, "properties": {"oleaje_kw_m": 22.74, "hm0_m": 2.16, "te_s": 9.56, "horas": 192}}, {"type": "Feature", "geometry": {"type": "Point", "coordinates": [-80.0, -32]}, "properties": {"oleaje_kw_m": 22.06, "hm0_m": 2.21, "te_s": 9.03, "horas": 192}}, {"type": "Feature", "geometry": {"type": "Point", "coordinates": [-72.0, -32]}, "properties": {"oleaje_kw_m": 23.02, "hm0_m": 2.27, "te_s": 8.91, "horas": 192}}, {"type": "Feature", "geometry": {"type": "Point", "coordinates": [-48.0, -32]}, "properties": {"oleaje_kw_m": 22.15, "hm0_m": 2.15, "te_s": 8.9, "horas": 192}}, {"type": "Feature", "geometry": {"type": "Point", "coordinates": [-40.0, -32]}, "properties": {"oleaje_kw_m": 27.74, "hm0_m": 2.34, "te_s": 9.43, "horas": 192}}, {"type": "Feature", "geometry": {"type": "Point", "coordinates": [-32.0, -32]}, "properties": {"oleaje_kw_m": 32.44, "hm0_m": 2.4, "te_s": 9.9, "horas": 192}}, {"type": "Feature", "geometry": {"type": "Point", "coordinates": [-24.0, -32]}, "properties": {"oleaje_kw_m": 33.15, "hm0_m": 2.51, "te_s": 9.6, "horas": 192}}, {"type": "Feature", "geometry": {"type": "Point", "coordinates": [-16.0, -32]}, "properties": {"oleaje_kw_m": 26.25, "hm0_m": 2.36, "te_s": 9.05, "horas": 192}}, {"type": "Feature", "geometry": {"type": "Point", "coordinates": [-8.0, -32]}, "properties": {"oleaje_kw_m": 18.0, "hm0_m": 1.89, "te_s": 9.52, "horas": 192}}, {"type": "Feature", "geometry": {"type": "Point", "coordinates": [0.0, -32]}, "properties": {"oleaje_kw_m": 21.03, "hm0_m": 1.97, "te_s": 10.11, "horas": 192}}, {"type": "Feature", "geometry": {"type": "Point", "coordinates": [8.0, -32]}, "properties": {"oleaje_kw_m": 32.65, "hm0_m": 2.44, "te_s": 9.95, "horas": 192}}, {"type": "Feature", "geometry": {"type": "Point", "coordinates": [16.0, -32]}, "properties": {"oleaje_kw_m": 38.59, "hm0_m": 2.66, "te_s": 9.51, "horas": 192}}, {"type": "Feature", "geometry": {"type": "Point", "coordinates": [32.0, -32]}, "properties": {"oleaje_kw_m": 57.17, "hm0_m": 3.16, "te_s": 9.83, "horas": 192}}, {"type": "Feature", "geometry": {"type": "Point", "coordinates": [40.0, -32]}, "properties": {"oleaje_kw_m": 65.57, "hm0_m": 3.29, "te_s": 10.22, "horas": 192}}, {"type": "Feature", "geometry": {"type": "Point", "coordinates": [48.0, -32]}, "properties": {"oleaje_kw_m": 53.5, "hm0_m": 3.03, "te_s": 10.14, "horas": 192}}, {"type": "Feature", "geometry": {"type": "Point", "coordinates": [56.0, -32]}, "properties": {"oleaje_kw_m": 42.98, "hm0_m": 2.68, "te_s": 10.46, "horas": 192}}, {"type": "Feature", "geometry": {"type": "Point", "coordinates": [64.0, -32]}, "properties": {"oleaje_kw_m": 50.88, "hm0_m": 2.81, "te_s": 11.14, "horas": 192}}, {"type": "Feature", "geometry": {"type": "Point", "coordinates": [72.0, -32]}, "properties": {"oleaje_kw_m": 58.2, "hm0_m": 3.01, "te_s": 11.04, "horas": 192}}, {"type": "Feature", "geometry": {"type": "Point", "coordinates": [80.0, -32]}, "properties": {"oleaje_kw_m": 45.93, "hm0_m": 2.66, "te_s": 11.01, "horas": 192}}, {"type": "Feature", "geometry": {"type": "Point", "coordinates": [88.0, -32]}, "properties": {"oleaje_kw_m": 36.83, "hm0_m": 2.42, "te_s": 10.74, "horas": 192}}, {"type": "Feature", "geometry": {"type": "Point", "coordinates": [96.0, -32]}, "properties": {"oleaje_kw_m": 32.92, "hm0_m": 2.33, "te_s": 10.24, "horas": 192}}, {"type": "Feature", "geometry": {"type": "Point", "coordinates": [104.0, -32]}, "properties": {"oleaje_kw_m": 37.9, "hm0_m": 2.56, "te_s": 10.44, "horas": 192}}, {"type": "Feature", "geometry": {"type": "Point", "coordinates": [112.0, -32]}, "properties": {"oleaje_kw_m": 45.73, "hm0_m": 2.86, "te_s": 10.59, "horas": 192}}, {"type": "Feature", "geometry": {"type": "Point", "coordinates": [128.0, -32]}, "properties": {"oleaje_kw_m": 19.95, "hm0_m": 1.97, "te_s": 10.26, "horas": 192}}, {"type": "Feature", "geometry": {"type": "Point", "coordinates": [160.0, -32]}, "properties": {"oleaje_kw_m": 18.85, "hm0_m": 1.85, "te_s": 9.75, "horas": 192}}, {"type": "Feature", "geometry": {"type": "Point", "coordinates": [168.0, -32]}, "properties": {"oleaje_kw_m": 30.96, "hm0_m": 2.44, "te_s": 9.93, "horas": 192}}, {"type": "Feature", "geometry": {"type": "Point", "coordinates": [176.0, -32]}, "properties": {"oleaje_kw_m": 33.99, "hm0_m": 2.66, "te_s": 8.75, "horas": 192}}, {"type": "Feature", "geometry": {"type": "Point", "coordinates": [-176.0, -24]}, "properties": {"oleaje_kw_m": 22.59, "hm0_m": 2.19, "te_s": 9.35, "horas": 192}}, {"type": "Feature", "geometry": {"type": "Point", "coordinates": [-168.0, -24]}, "properties": {"oleaje_kw_m": 25.37, "hm0_m": 2.24, "te_s": 9.87, "horas": 192}}, {"type": "Feature", "geometry": {"type": "Point", "coordinates": [-160.0, -24]}, "properties": {"oleaje_kw_m": 29.47, "hm0_m": 2.29, "te_s": 10.66, "horas": 192}}, {"type": "Feature", "geometry": {"type": "Point", "coordinates": [-152.0, -24]}, "properties": {"oleaje_kw_m": 31.5, "hm0_m": 2.38, "te_s": 10.83, "horas": 192}}, {"type": "Feature", "geometry": {"type": "Point", "coordinates": [-144.0, -24]}, "properties": {"oleaje_kw_m": 25.03, "hm0_m": 2.05, "te_s": 10.86, "horas": 192}}, {"type": "Feature", "geometry": {"type": "Point", "coordinates": [-136.0, -24]}, "properties": {"oleaje_kw_m": 23.99, "hm0_m": 2.03, "te_s": 10.86, "horas": 192}}, {"type": "Feature", "geometry": {"type": "Point", "coordinates": [-128.0, -24]}, "properties": {"oleaje_kw_m": 23.72, "hm0_m": 2.12, "te_s": 10.46, "horas": 192}}, {"type": "Feature", "geometry": {"type": "Point", "coordinates": [-120.0, -24]}, "properties": {"oleaje_kw_m": 21.69, "hm0_m": 1.99, "te_s": 10.94, "horas": 192}}, {"type": "Feature", "geometry": {"type": "Point", "coordinates": [-112.0, -24]}, "properties": {"oleaje_kw_m": 20.36, "hm0_m": 1.99, "te_s": 10.5, "horas": 192}}, {"type": "Feature", "geometry": {"type": "Point", "coordinates": [-104.0, -24]}, "properties": {"oleaje_kw_m": 22.37, "hm0_m": 2.12, "te_s": 10.02, "horas": 192}}, {"type": "Feature", "geometry": {"type": "Point", "coordinates": [-96.0, -24]}, "properties": {"oleaje_kw_m": 20.62, "hm0_m": 2.09, "te_s": 9.49, "horas": 192}}, {"type": "Feature", "geometry": {"type": "Point", "coordinates": [-88.0, -24]}, "properties": {"oleaje_kw_m": 17.71, "hm0_m": 2.01, "te_s": 8.88, "horas": 192}}, {"type": "Feature", "geometry": {"type": "Point", "coordinates": [-80.0, -24]}, "properties": {"oleaje_kw_m": 17.2, "hm0_m": 1.99, "te_s": 8.82, "horas": 192}}, {"type": "Feature", "geometry": {"type": "Point", "coordinates": [-72.0, -24]}, "properties": {"oleaje_kw_m": 14.56, "hm0_m": 1.8, "te_s": 9.12, "horas": 192}}, {"type": "Feature", "geometry": {"type": "Point", "coordinates": [-40.0, -24]}, "properties": {"oleaje_kw_m": 25.43, "hm0_m": 2.27, "te_s": 9.0, "horas": 192}}, {"type": "Feature", "geometry": {"type": "Point", "coordinates": [-32.0, -24]}, "properties": {"oleaje_kw_m": 23.56, "hm0_m": 2.17, "te_s": 9.67, "horas": 192}}, {"type": "Feature", "geometry": {"type": "Point", "coordinates": [-24.0, -24]}, "properties": {"oleaje_kw_m": 16.9, "hm0_m": 1.83, "te_s": 10.07, "horas": 192}}, {"type": "Feature", "geometry": {"type": "Point", "coordinates": [-16.0, -24]}, "properties": {"oleaje_kw_m": 14.83, "hm0_m": 1.7, "te_s": 9.81, "horas": 192}}, {"type": "Feature", "geometry": {"type": "Point", "coordinates": [-8.0, -24]}, "properties": {"oleaje_kw_m": 20.26, "hm0_m": 1.97, "te_s": 9.06, "horas": 192}}, {"type": "Feature", "geometry": {"type": "Point", "coordinates": [0.0, -24]}, "properties": {"oleaje_kw_m": 27.61, "hm0_m": 2.26, "te_s": 8.97, "horas": 192}}, {"type": "Feature", "geometry": {"type": "Point", "coordinates": [8.0, -24]}, "properties": {"oleaje_kw_m": 39.69, "hm0_m": 2.72, "te_s": 8.87, "horas": 192}}, {"type": "Feature", "geometry": {"type": "Point", "coordinates": [40.0, -24]}, "properties": {"oleaje_kw_m": 29.1, "hm0_m": 2.38, "te_s": 9.43, "horas": 192}}, {"type": "Feature", "geometry": {"type": "Point", "coordinates": [48.0, -24]}, "properties": {"oleaje_kw_m": 19.48, "hm0_m": 1.93, "te_s": 9.34, "horas": 192}}, {"type": "Feature", "geometry": {"type": "Point", "coordinates": [56.0, -24]}, "properties": {"oleaje_kw_m": 28.16, "hm0_m": 2.26, "te_s": 9.59, "horas": 192}}, {"type": "Feature", "geometry": {"type": "Point", "coordinates": [64.0, -24]}, "properties": {"oleaje_kw_m": 31.82, "hm0_m": 2.35, "te_s": 10.07, "horas": 192}}, {"type": "Feature", "geometry": {"type": "Point", "coordinates": [72.0, -24]}, "properties": {"oleaje_kw_m": 33.43, "hm0_m": 2.44, "te_s": 10.17, "horas": 192}}, {"type": "Feature", "geometry": {"type": "Point", "coordinates": [80.0, -24]}, "properties": {"oleaje_kw_m": 30.21, "hm0_m": 2.43, "te_s": 9.83, "horas": 192}}, {"type": "Feature", "geometry": {"type": "Point", "coordinates": [88.0, -24]}, "properties": {"oleaje_kw_m": 26.25, "hm0_m": 2.27, "te_s": 9.73, "horas": 192}}, {"type": "Feature", "geometry": {"type": "Point", "coordinates": [96.0, -24]}, "properties": {"oleaje_kw_m": 31.7, "hm0_m": 2.48, "te_s": 9.87, "horas": 192}}, {"type": "Feature", "geometry": {"type": "Point", "coordinates": [104.0, -24]}, "properties": {"oleaje_kw_m": 41.71, "hm0_m": 2.84, "te_s": 10.02, "horas": 192}}, {"type": "Feature", "geometry": {"type": "Point", "coordinates": [112.0, -24]}, "properties": {"oleaje_kw_m": 51.69, "hm0_m": 3.03, "te_s": 10.88, "horas": 192}}, {"type": "Feature", "geometry": {"type": "Point", "coordinates": [152.0, -24]}, "properties": {"oleaje_kw_m": 4.16, "hm0_m": 1.05, "te_s": 5.49, "horas": 192}}, {"type": "Feature", "geometry": {"type": "Point", "coordinates": [160.0, -24]}, "properties": {"oleaje_kw_m": 12.57, "hm0_m": 1.77, "te_s": 7.99, "horas": 192}}, {"type": "Feature", "geometry": {"type": "Point", "coordinates": [168.0, -24]}, "properties": {"oleaje_kw_m": 19.14, "hm0_m": 2.13, "te_s": 8.45, "horas": 192}}, {"type": "Feature", "geometry": {"type": "Point", "coordinates": [176.0, -24]}, "properties": {"oleaje_kw_m": 21.35, "hm0_m": 2.2, "te_s": 8.81, "horas": 192}}, {"type": "Feature", "geometry": {"type": "Point", "coordinates": [-176.0, -16]}, "properties": {"oleaje_kw_m": 22.92, "hm0_m": 2.24, "te_s": 8.87, "horas": 192}}, {"type": "Feature", "geometry": {"type": "Point", "coordinates": [-168.0, -16]}, "properties": {"oleaje_kw_m": 22.16, "hm0_m": 2.12, "te_s": 9.82, "horas": 192}}, {"type": "Feature", "geometry": {"type": "Point", "coordinates": [-160.0, -16]}, "properties": {"oleaje_kw_m": 22.86, "hm0_m": 2.07, "te_s": 10.41, "horas": 192}}, {"type": "Feature", "geometry": {"type": "Point", "coordinates": [-152.0, -16]}, "properties": {"oleaje_kw_m": 17.51, "hm0_m": 1.78, "te_s": 10.77, "horas": 192}}, {"type": "Feature", "geometry": {"type": "Point", "coordinates": [-144.0, -16]}, "properties": {"oleaje_kw_m": 7.36, "hm0_m": 1.19, "te_s": 9.77, "horas": 192}}, {"type": "Feature", "geometry": {"type": "Point", "coordinates": [-136.0, -16]}, "properties": {"oleaje_kw_m": 18.6, "hm0_m": 1.8, "te_s": 11.07, "horas": 192}}, {"type": "Feature", "geometry": {"type": "Point", "coordinates": [-128.0, -16]}, "properties": {"oleaje_kw_m": 23.24, "hm0_m": 2.03, "te_s": 11.05, "horas": 192}}, {"type": "Feature", "geometry": {"type": "Point", "coordinates": [-120.0, -16]}, "properties": {"oleaje_kw_m": 21.18, "hm0_m": 2.04, "te_s": 10.37, "horas": 192}}, {"type": "Feature", "geometry": {"type": "Point", "coordinates": [-112.0, -16]}, "properties": {"oleaje_kw_m": 21.64, "hm0_m": 2.08, "te_s": 9.99, "horas": 192}}, {"type": "Feature", "geometry": {"type": "Point", "coordinates": [-104.0, -16]}, "properties": {"oleaje_kw_m": 20.43, "hm0_m": 2.09, "te_s": 9.43, "horas": 192}}, {"type": "Feature", "geometry": {"type": "Point", "coordinates": [-96.0, -16]}, "properties": {"oleaje_kw_m": 17.99, "hm0_m": 2.02, "te_s": 8.97, "horas": 192}}, {"type": "Feature", "geometry": {"type": "Point", "coordinates": [-88.0, -16]}, "properties": {"oleaje_kw_m": 15.51, "hm0_m": 1.89, "te_s": 8.81, "horas": 192}}, {"type": "Feature", "geometry": {"type": "Point", "coordinates": [-80.0, -16]}, "properties": {"oleaje_kw_m": 13.6, "hm0_m": 1.75, "te_s": 9.02, "horas": 192}}, {"type": "Feature", "geometry": {"type": "Point", "coordinates": [-32.0, -16]}, "properties": {"oleaje_kw_m": 14.52, "hm0_m": 1.75, "te_s": 9.36, "horas": 192}}, {"type": "Feature", "geometry": {"type": "Point", "coordinates": [-24.0, -16]}, "properties": {"oleaje_kw_m": 15.72, "hm0_m": 1.86, "te_s": 9.01, "horas": 192}}, {"type": "Feature", "geometry": {"type": "Point", "coordinates": [-16.0, -16]}, "properties": {"oleaje_kw_m": 17.71, "hm0_m": 1.91, "te_s": 9.21, "horas": 192}}, {"type": "Feature", "geometry": {"type": "Point", "coordinates": [-8.0, -16]}, "properties": {"oleaje_kw_m": 21.07, "hm0_m": 2.04, "te_s": 9.13, "horas": 192}}, {"type": "Feature", "geometry": {"type": "Point", "coordinates": [0.0, -16]}, "properties": {"oleaje_kw_m": 24.85, "hm0_m": 2.21, "te_s": 9.14, "horas": 192}}, {"type": "Feature", "geometry": {"type": "Point", "coordinates": [8.0, -16]}, "properties": {"oleaje_kw_m": 27.56, "hm0_m": 2.28, "te_s": 9.51, "horas": 192}}, {"type": "Feature", "geometry": {"type": "Point", "coordinates": [56.0, -16]}, "properties": {"oleaje_kw_m": 15.83, "hm0_m": 1.84, "te_s": 8.81, "horas": 192}}, {"type": "Feature", "geometry": {"type": "Point", "coordinates": [64.0, -16]}, "properties": {"oleaje_kw_m": 22.89, "hm0_m": 2.24, "te_s": 8.86, "horas": 192}}, {"type": "Feature", "geometry": {"type": "Point", "coordinates": [72.0, -16]}, "properties": {"oleaje_kw_m": 29.52, "hm0_m": 2.55, "te_s": 8.95, "horas": 192}}, {"type": "Feature", "geometry": {"type": "Point", "coordinates": [80.0, -16]}, "properties": {"oleaje_kw_m": 32.34, "hm0_m": 2.72, "te_s": 8.74, "horas": 192}}, {"type": "Feature", "geometry": {"type": "Point", "coordinates": [88.0, -16]}, "properties": {"oleaje_kw_m": 31.01, "hm0_m": 2.61, "te_s": 8.78, "horas": 192}}, {"type": "Feature", "geometry": {"type": "Point", "coordinates": [96.0, -16]}, "properties": {"oleaje_kw_m": 36.16, "hm0_m": 2.66, "te_s": 9.43, "horas": 192}}, {"type": "Feature", "geometry": {"type": "Point", "coordinates": [104.0, -16]}, "properties": {"oleaje_kw_m": 42.38, "hm0_m": 2.79, "te_s": 10.28, "horas": 192}}, {"type": "Feature", "geometry": {"type": "Point", "coordinates": [112.0, -16]}, "properties": {"oleaje_kw_m": 44.96, "hm0_m": 2.7, "te_s": 11.65, "horas": 192}}, {"type": "Feature", "geometry": {"type": "Point", "coordinates": [120.0, -16]}, "properties": {"oleaje_kw_m": 10.62, "hm0_m": 1.43, "te_s": 10.33, "horas": 192}}, {"type": "Feature", "geometry": {"type": "Point", "coordinates": [152.0, -16]}, "properties": {"oleaje_kw_m": 15.92, "hm0_m": 1.73, "te_s": 7.76, "horas": 192}}, {"type": "Feature", "geometry": {"type": "Point", "coordinates": [160.0, -16]}, "properties": {"oleaje_kw_m": 21.97, "hm0_m": 2.14, "te_s": 7.53, "horas": 192}}, {"type": "Feature", "geometry": {"type": "Point", "coordinates": [168.0, -16]}, "properties": {"oleaje_kw_m": 7.5, "hm0_m": 1.36, "te_s": 6.9, "horas": 192}}, {"type": "Feature", "geometry": {"type": "Point", "coordinates": [176.0, -16]}, "properties": {"oleaje_kw_m": 23.15, "hm0_m": 2.16, "te_s": 9.37, "horas": 192}}, {"type": "Feature", "geometry": {"type": "Point", "coordinates": [-176.0, -8]}, "properties": {"oleaje_kw_m": 19.02, "hm0_m": 1.93, "te_s": 10.13, "horas": 192}}, {"type": "Feature", "geometry": {"type": "Point", "coordinates": [-168.0, -8]}, "properties": {"oleaje_kw_m": 18.78, "hm0_m": 1.9, "te_s": 10.31, "horas": 192}}, {"type": "Feature", "geometry": {"type": "Point", "coordinates": [-160.0, -8]}, "properties": {"oleaje_kw_m": 20.19, "hm0_m": 1.95, "te_s": 10.59, "horas": 192}}, {"type": "Feature", "geometry": {"type": "Point", "coordinates": [-152.0, -8]}, "properties": {"oleaje_kw_m": 20.63, "hm0_m": 1.99, "te_s": 10.48, "horas": 192}}, {"type": "Feature", "geometry": {"type": "Point", "coordinates": [-144.0, -8]}, "properties": {"oleaje_kw_m": 15.88, "hm0_m": 1.8, "te_s": 9.65, "horas": 192}}, {"type": "Feature", "geometry": {"type": "Point", "coordinates": [-136.0, -8]}, "properties": {"oleaje_kw_m": 21.49, "hm0_m": 2.04, "te_s": 9.81, "horas": 192}}, {"type": "Feature", "geometry": {"type": "Point", "coordinates": [-128.0, -8]}, "properties": {"oleaje_kw_m": 22.87, "hm0_m": 2.12, "te_s": 9.86, "horas": 192}}, {"type": "Feature", "geometry": {"type": "Point", "coordinates": [-120.0, -8]}, "properties": {"oleaje_kw_m": 24.83, "hm0_m": 2.21, "te_s": 9.84, "horas": 192}}, {"type": "Feature", "geometry": {"type": "Point", "coordinates": [-112.0, -8]}, "properties": {"oleaje_kw_m": 25.46, "hm0_m": 2.24, "te_s": 9.69, "horas": 192}}, {"type": "Feature", "geometry": {"type": "Point", "coordinates": [-104.0, -8]}, "properties": {"oleaje_kw_m": 20.8, "hm0_m": 2.05, "te_s": 9.76, "horas": 192}}, {"type": "Feature", "geometry": {"type": "Point", "coordinates": [-96.0, -8]}, "properties": {"oleaje_kw_m": 17.71, "hm0_m": 1.9, "te_s": 9.67, "horas": 192}}, {"type": "Feature", "geometry": {"type": "Point", "coordinates": [-88.0, -8]}, "properties": {"oleaje_kw_m": 14.29, "hm0_m": 1.73, "te_s": 9.6, "horas": 192}}, {"type": "Feature", "geometry": {"type": "Point", "coordinates": [-80.0, -8]}, "properties": {"oleaje_kw_m": 11.65, "hm0_m": 1.54, "te_s": 9.8, "horas": 192}}, {"type": "Feature", "geometry": {"type": "Point", "coordinates": [-32.0, -8]}, "properties": {"oleaje_kw_m": 13.78, "hm0_m": 1.78, "te_s": 8.61, "horas": 192}}, {"type": "Feature", "geometry": {"type": "Point", "coordinates": [-24.0, -8]}, "properties": {"oleaje_kw_m": 17.09, "hm0_m": 1.93, "te_s": 8.61, "horas": 192}}, {"type": "Feature", "geometry": {"type": "Point", "coordinates": [-16.0, -8]}, "properties": {"oleaje_kw_m": 18.4, "hm0_m": 1.95, "te_s": 8.84, "horas": 192}}, {"type": "Feature", "geometry": {"type": "Point", "coordinates": [-8.0, -8]}, "properties": {"oleaje_kw_m": 16.49, "hm0_m": 1.83, "te_s": 8.9, "horas": 192}}, {"type": "Feature", "geometry": {"type": "Point", "coordinates": [0.0, -8]}, "properties": {"oleaje_kw_m": 15.3, "hm0_m": 1.67, "te_s": 9.66, "horas": 192}}, {"type": "Feature", "geometry": {"type": "Point", "coordinates": [8.0, -8]}, "properties": {"oleaje_kw_m": 13.58, "hm0_m": 1.46, "te_s": 10.58, "horas": 192}}, {"type": "Feature", "geometry": {"type": "Point", "coordinates": [40.0, -8]}, "properties": {"oleaje_kw_m": 4.85, "hm0_m": 1.16, "te_s": 6.57, "horas": 192}}, {"type": "Feature", "geometry": {"type": "Point", "coordinates": [48.0, -8]}, "properties": {"oleaje_kw_m": 10.7, "hm0_m": 1.6, "te_s": 7.23, "horas": 192}}, {"type": "Feature", "geometry": {"type": "Point", "coordinates": [56.0, -8]}, "properties": {"oleaje_kw_m": 9.78, "hm0_m": 1.51, "te_s": 8.35, "horas": 192}}, {"type": "Feature", "geometry": {"type": "Point", "coordinates": [64.0, -8]}, "properties": {"oleaje_kw_m": 14.94, "hm0_m": 1.89, "te_s": 8.48, "horas": 192}}, {"type": "Feature", "geometry": {"type": "Point", "coordinates": [72.0, -8]}, "properties": {"oleaje_kw_m": 21.71, "hm0_m": 2.19, "te_s": 9.06, "horas": 192}}, {"type": "Feature", "geometry": {"type": "Point", "coordinates": [80.0, -8]}, "properties": {"oleaje_kw_m": 25.65, "hm0_m": 2.34, "te_s": 9.22, "horas": 192}}, {"type": "Feature", "geometry": {"type": "Point", "coordinates": [88.0, -8]}, "properties": {"oleaje_kw_m": 29.9, "hm0_m": 2.43, "te_s": 9.8, "horas": 192}}, {"type": "Feature", "geometry": {"type": "Point", "coordinates": [96.0, -8]}, "properties": {"oleaje_kw_m": 30.67, "hm0_m": 2.38, "te_s": 10.19, "horas": 192}}, {"type": "Feature", "geometry": {"type": "Point", "coordinates": [104.0, -8]}, "properties": {"oleaje_kw_m": 33.1, "hm0_m": 2.4, "te_s": 10.8, "horas": 192}}, {"type": "Feature", "geometry": {"type": "Point", "coordinates": [120.0, -8]}, "properties": {"oleaje_kw_m": 0.59, "hm0_m": 0.46, "te_s": 5.32, "horas": 192}}, {"type": "Feature", "geometry": {"type": "Point", "coordinates": [128.0, -8]}, "properties": {"oleaje_kw_m": 1.17, "hm0_m": 0.64, "te_s": 5.15, "horas": 192}}, {"type": "Feature", "geometry": {"type": "Point", "coordinates": [136.0, -8]}, "properties": {"oleaje_kw_m": 3.7, "hm0_m": 1.06, "te_s": 5.73, "horas": 192}}, {"type": "Feature", "geometry": {"type": "Point", "coordinates": [144.0, -8]}, "properties": {"oleaje_kw_m": 2.67, "hm0_m": 0.74, "te_s": 6.33, "horas": 192}}, {"type": "Feature", "geometry": {"type": "Point", "coordinates": [152.0, -8]}, "properties": {"oleaje_kw_m": 5.9, "hm0_m": 1.09, "te_s": 7.55, "horas": 192}}, {"type": "Feature", "geometry": {"type": "Point", "coordinates": [160.0, -8]}, "properties": {"oleaje_kw_m": 6.59, "hm0_m": 1.12, "te_s": 9.36, "horas": 192}}, {"type": "Feature", "geometry": {"type": "Point", "coordinates": [168.0, -8]}, "properties": {"oleaje_kw_m": 15.88, "hm0_m": 1.8, "te_s": 9.41, "horas": 192}}, {"type": "Feature", "geometry": {"type": "Point", "coordinates": [176.0, -8]}, "properties": {"oleaje_kw_m": 16.95, "hm0_m": 1.82, "te_s": 10.11, "horas": 192}}, {"type": "Feature", "geometry": {"type": "Point", "coordinates": [-176.0, 0]}, "properties": {"oleaje_kw_m": 20.05, "hm0_m": 1.92, "te_s": 10.42, "horas": 192}}, {"type": "Feature", "geometry": {"type": "Point", "coordinates": [-168.0, 0]}, "properties": {"oleaje_kw_m": 21.18, "hm0_m": 1.98, "te_s": 10.42, "horas": 192}}, {"type": "Feature", "geometry": {"type": "Point", "coordinates": [-160.0, 0]}, "properties": {"oleaje_kw_m": 20.57, "hm0_m": 1.98, "te_s": 10.4, "horas": 192}}, {"type": "Feature", "geometry": {"type": "Point", "coordinates": [-152.0, 0]}, "properties": {"oleaje_kw_m": 21.21, "hm0_m": 2.07, "te_s": 9.95, "horas": 192}}, {"type": "Feature", "geometry": {"type": "Point", "coordinates": [-144.0, 0]}, "properties": {"oleaje_kw_m": 21.52, "hm0_m": 2.09, "te_s": 9.45, "horas": 192}}, {"type": "Feature", "geometry": {"type": "Point", "coordinates": [-136.0, 0]}, "properties": {"oleaje_kw_m": 24.54, "hm0_m": 2.09, "te_s": 9.83, "horas": 192}}, {"type": "Feature", "geometry": {"type": "Point", "coordinates": [-128.0, 0]}, "properties": {"oleaje_kw_m": 23.15, "hm0_m": 2.05, "te_s": 10.22, "horas": 192}}, {"type": "Feature", "geometry": {"type": "Point", "coordinates": [-120.0, 0]}, "properties": {"oleaje_kw_m": 29.52, "hm0_m": 2.11, "te_s": 11.2, "horas": 192}}, {"type": "Feature", "geometry": {"type": "Point", "coordinates": [-112.0, 0]}, "properties": {"oleaje_kw_m": 25.35, "hm0_m": 2.02, "te_s": 11.35, "horas": 192}}, {"type": "Feature", "geometry": {"type": "Point", "coordinates": [-104.0, 0]}, "properties": {"oleaje_kw_m": 25.33, "hm0_m": 2.01, "te_s": 11.3, "horas": 192}}, {"type": "Feature", "geometry": {"type": "Point", "coordinates": [-96.0, 0]}, "properties": {"oleaje_kw_m": 19.91, "hm0_m": 1.85, "te_s": 10.96, "horas": 192}}, {"type": "Feature", "geometry": {"type": "Point", "coordinates": [-88.0, 0]}, "properties": {"oleaje_kw_m": 13.02, "hm0_m": 1.55, "te_s": 10.67, "horas": 192}}, {"type": "Feature", "geometry": {"type": "Point", "coordinates": [-80.0, 0]}, "properties": {"oleaje_kw_m": 2.63, "hm0_m": 0.74, "te_s": 9.22, "horas": 192}}, {"type": "Feature", "geometry": {"type": "Point", "coordinates": [-48.0, 0]}, "properties": {"oleaje_kw_m": 2.54, "hm0_m": 0.94, "te_s": 5.85, "horas": 192}}, {"type": "Feature", "geometry": {"type": "Point", "coordinates": [-40.0, 0]}, "properties": {"oleaje_kw_m": 12.21, "hm0_m": 1.76, "te_s": 7.96, "horas": 192}}, {"type": "Feature", "geometry": {"type": "Point", "coordinates": [-32.0, 0]}, "properties": {"oleaje_kw_m": 13.99, "hm0_m": 1.81, "te_s": 8.68, "horas": 192}}, {"type": "Feature", "geometry": {"type": "Point", "coordinates": [-24.0, 0]}, "properties": {"oleaje_kw_m": 15.65, "hm0_m": 1.8, "te_s": 9.32, "horas": 192}}, {"type": "Feature", "geometry": {"type": "Point", "coordinates": [-16.0, 0]}, "properties": {"oleaje_kw_m": 14.42, "hm0_m": 1.71, "te_s": 9.31, "horas": 192}}, {"type": "Feature", "geometry": {"type": "Point", "coordinates": [-8.0, 0]}, "properties": {"oleaje_kw_m": 10.55, "hm0_m": 1.43, "te_s": 9.28, "horas": 192}}, {"type": "Feature", "geometry": {"type": "Point", "coordinates": [0.0, 0]}, "properties": {"oleaje_kw_m": 9.26, "hm0_m": 1.34, "te_s": 9.58, "horas": 192}}, {"type": "Feature", "geometry": {"type": "Point", "coordinates": [8.0, 0]}, "properties": {"oleaje_kw_m": 7.75, "hm0_m": 1.17, "te_s": 10.29, "horas": 192}}, {"type": "Feature", "geometry": {"type": "Point", "coordinates": [48.0, 0]}, "properties": {"oleaje_kw_m": 10.09, "hm0_m": 1.54, "te_s": 8.2, "horas": 192}}, {"type": "Feature", "geometry": {"type": "Point", "coordinates": [56.0, 0]}, "properties": {"oleaje_kw_m": 8.82, "hm0_m": 1.46, "te_s": 8.26, "horas": 192}}, {"type": "Feature", "geometry": {"type": "Point", "coordinates": [64.0, 0]}, "properties": {"oleaje_kw_m": 10.15, "hm0_m": 1.43, "te_s": 9.66, "horas": 192}}, {"type": "Feature", "geometry": {"type": "Point", "coordinates": [72.0, 0]}, "properties": {"oleaje_kw_m": 11.09, "hm0_m": 1.45, "te_s": 10.12, "horas": 192}}, {"type": "Feature", "geometry": {"type": "Point", "coordinates": [80.0, 0]}, "properties": {"oleaje_kw_m": 15.72, "hm0_m": 1.69, "te_s": 10.43, "horas": 192}}, {"type": "Feature", "geometry": {"type": "Point", "coordinates": [88.0, 0]}, "properties": {"oleaje_kw_m": 21.21, "hm0_m": 1.94, "te_s": 11.01, "horas": 192}}, {"type": "Feature", "geometry": {"type": "Point", "coordinates": [96.0, 0]}, "properties": {"oleaje_kw_m": 20.21, "hm0_m": 1.81, "te_s": 11.75, "horas": 192}}, {"type": "Feature", "geometry": {"type": "Point", "coordinates": [104.0, 0]}, "properties": {"oleaje_kw_m": 0.11, "hm0_m": 0.23, "te_s": 2.69, "horas": 192}}, {"type": "Feature", "geometry": {"type": "Point", "coordinates": [120.0, 0]}, "properties": {"oleaje_kw_m": 0.08, "hm0_m": 0.18, "te_s": 3.64, "horas": 192}}, {"type": "Feature", "geometry": {"type": "Point", "coordinates": [128.0, 0]}, "properties": {"oleaje_kw_m": 0.07, "hm0_m": 0.14, "te_s": 7.29, "horas": 192}}, {"type": "Feature", "geometry": {"type": "Point", "coordinates": [136.0, 0]}, "properties": {"oleaje_kw_m": 9.17, "hm0_m": 1.27, "te_s": 9.66, "horas": 192}}, {"type": "Feature", "geometry": {"type": "Point", "coordinates": [144.0, 0]}, "properties": {"oleaje_kw_m": 8.72, "hm0_m": 1.28, "te_s": 9.42, "horas": 192}}, {"type": "Feature", "geometry": {"type": "Point", "coordinates": [152.0, 0]}, "properties": {"oleaje_kw_m": 10.86, "hm0_m": 1.4, "te_s": 10.05, "horas": 192}}, {"type": "Feature", "geometry": {"type": "Point", "coordinates": [160.0, 0]}, "properties": {"oleaje_kw_m": 15.45, "hm0_m": 1.61, "te_s": 10.26, "horas": 192}}, {"type": "Feature", "geometry": {"type": "Point", "coordinates": [168.0, 0]}, "properties": {"oleaje_kw_m": 13.56, "hm0_m": 1.58, "te_s": 10.17, "horas": 192}}, {"type": "Feature", "geometry": {"type": "Point", "coordinates": [176.0, 0]}, "properties": {"oleaje_kw_m": 19.1, "hm0_m": 1.76, "te_s": 10.67, "horas": 192}}, {"type": "Feature", "geometry": {"type": "Point", "coordinates": [-176.0, 8]}, "properties": {"oleaje_kw_m": 33.22, "hm0_m": 2.43, "te_s": 9.95, "horas": 192}}, {"type": "Feature", "geometry": {"type": "Point", "coordinates": [-168.0, 8]}, "properties": {"oleaje_kw_m": 32.55, "hm0_m": 2.51, "te_s": 9.56, "horas": 192}}, {"type": "Feature", "geometry": {"type": "Point", "coordinates": [-160.0, 8]}, "properties": {"oleaje_kw_m": 30.18, "hm0_m": 2.49, "te_s": 9.42, "horas": 192}}, {"type": "Feature", "geometry": {"type": "Point", "coordinates": [-152.0, 8]}, "properties": {"oleaje_kw_m": 26.83, "hm0_m": 2.36, "te_s": 9.21, "horas": 192}}, {"type": "Feature", "geometry": {"type": "Point", "coordinates": [-144.0, 8]}, "properties": {"oleaje_kw_m": 27.71, "hm0_m": 2.32, "te_s": 9.47, "horas": 192}}, {"type": "Feature", "geometry": {"type": "Point", "coordinates": [-136.0, 8]}, "properties": {"oleaje_kw_m": 28.72, "hm0_m": 2.26, "te_s": 9.81, "horas": 192}}, {"type": "Feature", "geometry": {"type": "Point", "coordinates": [-128.0, 8]}, "properties": {"oleaje_kw_m": 30.48, "hm0_m": 2.23, "te_s": 10.55, "horas": 192}}, {"type": "Feature", "geometry": {"type": "Point", "coordinates": [-120.0, 8]}, "properties": {"oleaje_kw_m": 33.8, "hm0_m": 2.26, "te_s": 11.09, "horas": 192}}, {"type": "Feature", "geometry": {"type": "Point", "coordinates": [-112.0, 8]}, "properties": {"oleaje_kw_m": 33.07, "hm0_m": 2.16, "te_s": 11.89, "horas": 192}}, {"type": "Feature", "geometry": {"type": "Point", "coordinates": [-104.0, 8]}, "properties": {"oleaje_kw_m": 29.58, "hm0_m": 2.06, "te_s": 11.63, "horas": 192}}, {"type": "Feature", "geometry": {"type": "Point", "coordinates": [-96.0, 8]}, "properties": {"oleaje_kw_m": 21.64, "hm0_m": 1.88, "te_s": 10.92, "horas": 192}}, {"type": "Feature", "geometry": {"type": "Point", "coordinates": [-88.0, 8]}, "properties": {"oleaje_kw_m": 14.24, "hm0_m": 1.59, "te_s": 10.79, "horas": 192}}, {"type": "Feature", "geometry": {"type": "Point", "coordinates": [-80.0, 8]}, "properties": {"oleaje_kw_m": 0.68, "hm0_m": 0.51, "te_s": 4.37, "horas": 192}}, {"type": "Feature", "geometry": {"type": "Point", "coordinates": [-56.0, 8]}, "properties": {"oleaje_kw_m": 9.14, "hm0_m": 1.52, "te_s": 7.54, "horas": 192}}, {"type": "Feature", "geometry": {"type": "Point", "coordinates": [-48.0, 8]}, "properties": {"oleaje_kw_m": 10.96, "hm0_m": 1.64, "te_s": 7.92, "horas": 192}}, {"type": "Feature", "geometry": {"type": "Point", "coordinates": [-40.0, 8]}, "properties": {"oleaje_kw_m": 11.59, "hm0_m": 1.67, "te_s": 8.37, "horas": 192}}, {"type": "Feature", "geometry": {"type": "Point", "coordinates": [-32.0, 8]}, "properties": {"oleaje_kw_m": 11.91, "hm0_m": 1.65, "te_s": 8.88, "horas": 192}}, {"type": "Feature", "geometry": {"type": "Point", "coordinates": [-24.0, 8]}, "properties": {"oleaje_kw_m": 11.82, "hm0_m": 1.55, "te_s": 9.75, "horas": 192}}, {"type": "Feature", "geometry": {"type": "Point", "coordinates": [-16.0, 8]}, "properties": {"oleaje_kw_m": 10.7, "hm0_m": 1.42, "te_s": 10.22, "horas": 192}}, {"type": "Feature", "geometry": {"type": "Point", "coordinates": [56.0, 8]}, "properties": {"oleaje_kw_m": 15.04, "hm0_m": 1.78, "te_s": 8.73, "horas": 192}}, {"type": "Feature", "geometry": {"type": "Point", "coordinates": [64.0, 8]}, "properties": {"oleaje_kw_m": 12.72, "hm0_m": 1.61, "te_s": 9.74, "horas": 192}}, {"type": "Feature", "geometry": {"type": "Point", "coordinates": [72.0, 8]}, "properties": {"oleaje_kw_m": 9.57, "hm0_m": 1.32, "te_s": 9.88, "horas": 192}}, {"type": "Feature", "geometry": {"type": "Point", "coordinates": [80.0, 8]}, "properties": {"oleaje_kw_m": 5.61, "hm0_m": 1.01, "te_s": 9.97, "horas": 192}}, {"type": "Feature", "geometry": {"type": "Point", "coordinates": [88.0, 8]}, "properties": {"oleaje_kw_m": 17.32, "hm0_m": 1.77, "te_s": 10.63, "horas": 192}}, {"type": "Feature", "geometry": {"type": "Point", "coordinates": [96.0, 8]}, "properties": {"oleaje_kw_m": 6.31, "hm0_m": 1.13, "te_s": 9.35, "horas": 192}}, {"type": "Feature", "geometry": {"type": "Point", "coordinates": [104.0, 8]}, "properties": {"oleaje_kw_m": 1.5, "hm0_m": 0.59, "te_s": 4.13, "horas": 192}}, {"type": "Feature", "geometry": {"type": "Point", "coordinates": [112.0, 8]}, "properties": {"oleaje_kw_m": 7.0, "hm0_m": 1.19, "te_s": 6.79, "horas": 192}}, {"type": "Feature", "geometry": {"type": "Point", "coordinates": [120.0, 8]}, "properties": {"oleaje_kw_m": 2.1, "hm0_m": 0.6, "te_s": 5.24, "horas": 192}}, {"type": "Feature", "geometry": {"type": "Point", "coordinates": [128.0, 8]}, "properties": {"oleaje_kw_m": 10.73, "hm0_m": 1.4, "te_s": 9.47, "horas": 192}}, {"type": "Feature", "geometry": {"type": "Point", "coordinates": [136.0, 8]}, "properties": {"oleaje_kw_m": 14.82, "hm0_m": 1.6, "te_s": 9.44, "horas": 192}}, {"type": "Feature", "geometry": {"type": "Point", "coordinates": [144.0, 8]}, "properties": {"oleaje_kw_m": 14.99, "hm0_m": 1.64, "te_s": 9.64, "horas": 192}}, {"type": "Feature", "geometry": {"type": "Point", "coordinates": [152.0, 8]}, "properties": {"oleaje_kw_m": 11.39, "hm0_m": 1.61, "te_s": 8.34, "horas": 192}}, {"type": "Feature", "geometry": {"type": "Point", "coordinates": [160.0, 8]}, "properties": {"oleaje_kw_m": 23.2, "hm0_m": 2.07, "te_s": 9.38, "horas": 192}}, {"type": "Feature", "geometry": {"type": "Point", "coordinates": [168.0, 8]}, "properties": {"oleaje_kw_m": 9.68, "hm0_m": 1.45, "te_s": 8.53, "horas": 192}}, {"type": "Feature", "geometry": {"type": "Point", "coordinates": [176.0, 8]}, "properties": {"oleaje_kw_m": 30.39, "hm0_m": 2.21, "te_s": 10.06, "horas": 192}}, {"type": "Feature", "geometry": {"type": "Point", "coordinates": [-176.0, 16]}, "properties": {"oleaje_kw_m": 39.14, "hm0_m": 2.58, "te_s": 10.24, "horas": 192}}, {"type": "Feature", "geometry": {"type": "Point", "coordinates": [-168.0, 16]}, "properties": {"oleaje_kw_m": 31.86, "hm0_m": 2.49, "te_s": 9.68, "horas": 192}}, {"type": "Feature", "geometry": {"type": "Point", "coordinates": [-160.0, 16]}, "properties": {"oleaje_kw_m": 27.13, "hm0_m": 2.3, "te_s": 9.52, "horas": 192}}, {"type": "Feature", "geometry": {"type": "Point", "coordinates": [-152.0, 16]}, "properties": {"oleaje_kw_m": 21.38, "hm0_m": 2.14, "te_s": 9.15, "horas": 192}}, {"type": "Feature", "geometry": {"type": "Point", "coordinates": [-144.0, 16]}, "properties": {"oleaje_kw_m": 24.67, "hm0_m": 2.21, "te_s": 9.55, "horas": 192}}, {"type": "Feature", "geometry": {"type": "Point", "coordinates": [-136.0, 16]}, "properties": {"oleaje_kw_m": 33.77, "hm0_m": 2.47, "te_s": 9.93, "horas": 192}}, {"type": "Feature", "geometry": {"type": "Point", "coordinates": [-128.0, 16]}, "properties": {"oleaje_kw_m": 39.21, "hm0_m": 2.56, "te_s": 10.45, "horas": 192}}, {"type": "Feature", "geometry": {"type": "Point", "coordinates": [-120.0, 16]}, "properties": {"oleaje_kw_m": 33.54, "hm0_m": 2.26, "te_s": 10.91, "horas": 192}}, {"type": "Feature", "geometry": {"type": "Point", "coordinates": [-112.0, 16]}, "properties": {"oleaje_kw_m": 34.6, "hm0_m": 2.15, "te_s": 11.85, "horas": 192}}, {"type": "Feature", "geometry": {"type": "Point", "coordinates": [-104.0, 16]}, "properties": {"oleaje_kw_m": 27.98, "hm0_m": 1.96, "te_s": 12.02, "horas": 192}}, {"type": "Feature", "geometry": {"type": "Point", "coordinates": [-88.0, 16]}, "properties": {"oleaje_kw_m": 2.4, "hm0_m": 0.88, "te_s": 5.53, "horas": 192}}, {"type": "Feature", "geometry": {"type": "Point", "coordinates": [-80.0, 16]}, "properties": {"oleaje_kw_m": 7.59, "hm0_m": 1.44, "te_s": 6.16, "horas": 192}}, {"type": "Feature", "geometry": {"type": "Point", "coordinates": [-72.0, 16]}, "properties": {"oleaje_kw_m": 7.71, "hm0_m": 1.46, "te_s": 6.11, "horas": 192}}, {"type": "Feature", "geometry": {"type": "Point", "coordinates": [-64.0, 16]}, "properties": {"oleaje_kw_m": 4.36, "hm0_m": 1.13, "te_s": 6.81, "horas": 192}}, {"type": "Feature", "geometry": {"type": "Point", "coordinates": [-56.0, 16]}, "properties": {"oleaje_kw_m": 10.05, "hm0_m": 1.6, "te_s": 7.98, "horas": 192}}, {"type": "Feature", "geometry": {"type": "Point", "coordinates": [-48.0, 16]}, "properties": {"oleaje_kw_m": 11.72, "hm0_m": 1.71, "te_s": 8.02, "horas": 192}}, {"type": "Feature", "geometry": {"type": "Point", "coordinates": [-40.0, 16]}, "properties": {"oleaje_kw_m": 12.75, "hm0_m": 1.75, "te_s": 8.17, "horas": 192}}, {"type": "Feature", "geometry": {"type": "Point", "coordinates": [-32.0, 16]}, "properties": {"oleaje_kw_m": 13.79, "hm0_m": 1.79, "te_s": 8.6, "horas": 192}}, {"type": "Feature", "geometry": {"type": "Point", "coordinates": [-24.0, 16]}, "properties": {"oleaje_kw_m": 7.93, "hm0_m": 1.39, "te_s": 8.32, "horas": 192}}, {"type": "Feature", "geometry": {"type": "Point", "coordinates": [40.0, 16]}, "properties": {"oleaje_kw_m": 0.05, "hm0_m": 0.17, "te_s": 3.45, "horas": 192}}, {"type": "Feature", "geometry": {"type": "Point", "coordinates": [56.0, 16]}, "properties": {"oleaje_kw_m": 16.35, "hm0_m": 1.65, "te_s": 9.37, "horas": 192}}, {"type": "Feature", "geometry": {"type": "Point", "coordinates": [64.0, 16]}, "properties": {"oleaje_kw_m": 19.46, "hm0_m": 1.77, "te_s": 9.86, "horas": 192}}, {"type": "Feature", "geometry": {"type": "Point", "coordinates": [72.0, 16]}, "properties": {"oleaje_kw_m": 11.01, "hm0_m": 1.42, "te_s": 9.57, "horas": 192}}, {"type": "Feature", "geometry": {"type": "Point", "coordinates": [88.0, 16]}, "properties": {"oleaje_kw_m": 12.43, "hm0_m": 1.45, "te_s": 11.08, "horas": 192}}, {"type": "Feature", "geometry": {"type": "Point", "coordinates": [96.0, 16]}, "properties": {"oleaje_kw_m": 1.93, "hm0_m": 0.6, "te_s": 10.22, "horas": 192}}, {"type": "Feature", "geometry": {"type": "Point", "coordinates": [112.0, 16]}, "properties": {"oleaje_kw_m": 7.49, "hm0_m": 1.31, "te_s": 6.96, "horas": 192}}, {"type": "Feature", "geometry": {"type": "Point", "coordinates": [120.0, 16]}, "properties": {"oleaje_kw_m": 5.95, "hm0_m": 0.9, "te_s": 5.72, "horas": 192}}, {"type": "Feature", "geometry": {"type": "Point", "coordinates": [128.0, 16]}, "properties": {"oleaje_kw_m": 16.46, "hm0_m": 1.84, "te_s": 8.74, "horas": 192}}, {"type": "Feature", "geometry": {"type": "Point", "coordinates": [136.0, 16]}, "properties": {"oleaje_kw_m": 16.87, "hm0_m": 1.79, "te_s": 8.87, "horas": 192}}, {"type": "Feature", "geometry": {"type": "Point", "coordinates": [144.0, 16]}, "properties": {"oleaje_kw_m": 22.21, "hm0_m": 2.08, "te_s": 8.59, "horas": 192}}, {"type": "Feature", "geometry": {"type": "Point", "coordinates": [152.0, 16]}, "properties": {"oleaje_kw_m": 24.71, "hm0_m": 2.24, "te_s": 8.7, "horas": 192}}, {"type": "Feature", "geometry": {"type": "Point", "coordinates": [160.0, 16]}, "properties": {"oleaje_kw_m": 26.72, "hm0_m": 2.31, "te_s": 8.86, "horas": 192}}, {"type": "Feature", "geometry": {"type": "Point", "coordinates": [168.0, 16]}, "properties": {"oleaje_kw_m": 30.37, "hm0_m": 2.34, "te_s": 9.3, "horas": 192}}, {"type": "Feature", "geometry": {"type": "Point", "coordinates": [176.0, 16]}, "properties": {"oleaje_kw_m": 39.65, "hm0_m": 2.57, "te_s": 9.55, "horas": 192}}, {"type": "Feature", "geometry": {"type": "Point", "coordinates": [-176.0, 24]}, "properties": {"oleaje_kw_m": 39.28, "hm0_m": 2.56, "te_s": 9.99, "horas": 192}}, {"type": "Feature", "geometry": {"type": "Point", "coordinates": [-168.0, 24]}, "properties": {"oleaje_kw_m": 33.58, "hm0_m": 2.37, "te_s": 10.48, "horas": 192}}, {"type": "Feature", "geometry": {"type": "Point", "coordinates": [-160.0, 24]}, "properties": {"oleaje_kw_m": 30.74, "hm0_m": 2.25, "te_s": 10.58, "horas": 192}}, {"type": "Feature", "geometry": {"type": "Point", "coordinates": [-152.0, 24]}, "properties": {"oleaje_kw_m": 29.07, "hm0_m": 2.19, "te_s": 10.96, "horas": 192}}, {"type": "Feature", "geometry": {"type": "Point", "coordinates": [-144.0, 24]}, "properties": {"oleaje_kw_m": 25.84, "hm0_m": 2.08, "te_s": 11.0, "horas": 192}}, {"type": "Feature", "geometry": {"type": "Point", "coordinates": [-136.0, 24]}, "properties": {"oleaje_kw_m": 26.05, "hm0_m": 2.12, "te_s": 10.85, "horas": 192}}, {"type": "Feature", "geometry": {"type": "Point", "coordinates": [-128.0, 24]}, "properties": {"oleaje_kw_m": 27.4, "hm0_m": 2.11, "te_s": 11.33, "horas": 192}}, {"type": "Feature", "geometry": {"type": "Point", "coordinates": [-120.0, 24]}, "properties": {"oleaje_kw_m": 29.15, "hm0_m": 2.11, "te_s": 11.35, "horas": 192}}, {"type": "Feature", "geometry": {"type": "Point", "coordinates": [-112.0, 24]}, "properties": {"oleaje_kw_m": 27.37, "hm0_m": 1.98, "te_s": 11.03, "horas": 192}}, {"type": "Feature", "geometry": {"type": "Point", "coordinates": [-96.0, 24]}, "properties": {"oleaje_kw_m": 7.21, "hm0_m": 1.46, "te_s": 5.56, "horas": 192}}, {"type": "Feature", "geometry": {"type": "Point", "coordinates": [-88.0, 24]}, "properties": {"oleaje_kw_m": 4.72, "hm0_m": 1.13, "te_s": 5.56, "horas": 192}}, {"type": "Feature", "geometry": {"type": "Point", "coordinates": [-80.0, 24]}, "properties": {"oleaje_kw_m": 1.15, "hm0_m": 0.59, "te_s": 4.71, "horas": 192}}, {"type": "Feature", "geometry": {"type": "Point", "coordinates": [-72.0, 24]}, "properties": {"oleaje_kw_m": 18.4, "hm0_m": 1.86, "te_s": 7.32, "horas": 192}}, {"type": "Feature", "geometry": {"type": "Point", "coordinates": [-64.0, 24]}, "properties": {"oleaje_kw_m": 16.37, "hm0_m": 1.81, "te_s": 7.77, "horas": 192}}, {"type": "Feature", "geometry": {"type": "Point", "coordinates": [-56.0, 24]}, "properties": {"oleaje_kw_m": 13.12, "hm0_m": 1.76, "te_s": 8.26, "horas": 192}}, {"type": "Feature", "geometry": {"type": "Point", "coordinates": [-48.0, 24]}, "properties": {"oleaje_kw_m": 18.27, "hm0_m": 2.01, "te_s": 8.7, "horas": 192}}, {"type": "Feature", "geometry": {"type": "Point", "coordinates": [-40.0, 24]}, "properties": {"oleaje_kw_m": 21.19, "hm0_m": 2.14, "te_s": 9.03, "horas": 192}}, {"type": "Feature", "geometry": {"type": "Point", "coordinates": [-32.0, 24]}, "properties": {"oleaje_kw_m": 20.03, "hm0_m": 2.11, "te_s": 8.84, "horas": 192}}, {"type": "Feature", "geometry": {"type": "Point", "coordinates": [-24.0, 24]}, "properties": {"oleaje_kw_m": 19.26, "hm0_m": 2.07, "te_s": 8.65, "horas": 192}}, {"type": "Feature", "geometry": {"type": "Point", "coordinates": [-16.0, 24]}, "properties": {"oleaje_kw_m": 9.55, "hm0_m": 1.58, "te_s": 7.1, "horas": 192}}, {"type": "Feature", "geometry": {"type": "Point", "coordinates": [64.0, 24]}, "properties": {"oleaje_kw_m": 10.7, "hm0_m": 1.39, "te_s": 8.12, "horas": 192}}, {"type": "Feature", "geometry": {"type": "Point", "coordinates": [120.0, 24]}, "properties": {"oleaje_kw_m": 18.3, "hm0_m": 1.76, "te_s": 6.14, "horas": 192}}, {"type": "Feature", "geometry": {"type": "Point", "coordinates": [128.0, 24]}, "properties": {"oleaje_kw_m": 21.48, "hm0_m": 2.14, "te_s": 8.02, "horas": 192}}, {"type": "Feature", "geometry": {"type": "Point", "coordinates": [136.0, 24]}, "properties": {"oleaje_kw_m": 13.06, "hm0_m": 1.68, "te_s": 8.38, "horas": 192}}, {"type": "Feature", "geometry": {"type": "Point", "coordinates": [144.0, 24]}, "properties": {"oleaje_kw_m": 14.95, "hm0_m": 1.71, "te_s": 8.82, "horas": 192}}, {"type": "Feature", "geometry": {"type": "Point", "coordinates": [152.0, 24]}, "properties": {"oleaje_kw_m": 17.13, "hm0_m": 1.82, "te_s": 9.07, "horas": 192}}, {"type": "Feature", "geometry": {"type": "Point", "coordinates": [160.0, 24]}, "properties": {"oleaje_kw_m": 19.99, "hm0_m": 1.97, "te_s": 9.32, "horas": 192}}, {"type": "Feature", "geometry": {"type": "Point", "coordinates": [168.0, 24]}, "properties": {"oleaje_kw_m": 32.27, "hm0_m": 2.41, "te_s": 9.55, "horas": 192}}, {"type": "Feature", "geometry": {"type": "Point", "coordinates": [176.0, 24]}, "properties": {"oleaje_kw_m": 39.82, "hm0_m": 2.66, "te_s": 10.05, "horas": 192}}, {"type": "Feature", "geometry": {"type": "Point", "coordinates": [-176.0, 32]}, "properties": {"oleaje_kw_m": 56.49, "hm0_m": 3.07, "te_s": 9.67, "horas": 192}}, {"type": "Feature", "geometry": {"type": "Point", "coordinates": [-168.0, 32]}, "properties": {"oleaje_kw_m": 52.6, "hm0_m": 2.87, "te_s": 9.65, "horas": 192}}, {"type": "Feature", "geometry": {"type": "Point", "coordinates": [-160.0, 32]}, "properties": {"oleaje_kw_m": 41.69, "hm0_m": 2.63, "te_s": 9.98, "horas": 192}}, {"type": "Feature", "geometry": {"type": "Point", "coordinates": [-152.0, 32]}, "properties": {"oleaje_kw_m": 40.52, "hm0_m": 2.5, "te_s": 10.85, "horas": 192}}, {"type": "Feature", "geometry": {"type": "Point", "coordinates": [-144.0, 32]}, "properties": {"oleaje_kw_m": 38.92, "hm0_m": 2.43, "te_s": 11.08, "horas": 192}}, {"type": "Feature", "geometry": {"type": "Point", "coordinates": [-136.0, 32]}, "properties": {"oleaje_kw_m": 39.17, "hm0_m": 2.47, "te_s": 10.5, "horas": 192}}, {"type": "Feature", "geometry": {"type": "Point", "coordinates": [-128.0, 32]}, "properties": {"oleaje_kw_m": 41.3, "hm0_m": 2.5, "te_s": 10.34, "horas": 192}}, {"type": "Feature", "geometry": {"type": "Point", "coordinates": [-120.0, 32]}, "properties": {"oleaje_kw_m": 31.34, "hm0_m": 2.37, "te_s": 9.64, "horas": 192}}, {"type": "Feature", "geometry": {"type": "Point", "coordinates": [-80.0, 32]}, "properties": {"oleaje_kw_m": 3.44, "hm0_m": 1.03, "te_s": 6.33, "horas": 192}}, {"type": "Feature", "geometry": {"type": "Point", "coordinates": [-72.0, 32]}, "properties": {"oleaje_kw_m": 31.33, "hm0_m": 2.25, "te_s": 7.71, "horas": 192}}, {"type": "Feature", "geometry": {"type": "Point", "coordinates": [-64.0, 32]}, "properties": {"oleaje_kw_m": 25.3, "hm0_m": 2.08, "te_s": 8.11, "horas": 192}}, {"type": "Feature", "geometry": {"type": "Point", "coordinates": [-56.0, 32]}, "properties": {"oleaje_kw_m": 24.68, "hm0_m": 2.26, "te_s": 8.2, "horas": 192}}, {"type": "Feature", "geometry": {"type": "Point", "coordinates": [-48.0, 32]}, "properties": {"oleaje_kw_m": 22.01, "hm0_m": 2.2, "te_s": 8.54, "horas": 192}}, {"type": "Feature", "geometry": {"type": "Point", "coordinates": [-40.0, 32]}, "properties": {"oleaje_kw_m": 36.79, "hm0_m": 2.7, "te_s": 9.12, "horas": 192}}, {"type": "Feature", "geometry": {"type": "Point", "coordinates": [-32.0, 32]}, "properties": {"oleaje_kw_m": 34.02, "hm0_m": 2.57, "te_s": 8.87, "horas": 192}}, {"type": "Feature", "geometry": {"type": "Point", "coordinates": [-24.0, 32]}, "properties": {"oleaje_kw_m": 20.2, "hm0_m": 1.99, "te_s": 8.67, "horas": 192}}, {"type": "Feature", "geometry": {"type": "Point", "coordinates": [-16.0, 32]}, "properties": {"oleaje_kw_m": 12.5, "hm0_m": 1.71, "te_s": 8.33, "horas": 192}}, {"type": "Feature", "geometry": {"type": "Point", "coordinates": [16.0, 32]}, "properties": {"oleaje_kw_m": 2.66, "hm0_m": 0.79, "te_s": 5.25, "horas": 192}}, {"type": "Feature", "geometry": {"type": "Point", "coordinates": [24.0, 32]}, "properties": {"oleaje_kw_m": 1.46, "hm0_m": 0.68, "te_s": 5.24, "horas": 192}}, {"type": "Feature", "geometry": {"type": "Point", "coordinates": [32.0, 32]}, "properties": {"oleaje_kw_m": 1.98, "hm0_m": 0.84, "te_s": 4.93, "horas": 192}}, {"type": "Feature", "geometry": {"type": "Point", "coordinates": [128.0, 32]}, "properties": {"oleaje_kw_m": 12.99, "hm0_m": 1.86, "te_s": 6.06, "horas": 192}}, {"type": "Feature", "geometry": {"type": "Point", "coordinates": [136.0, 32]}, "properties": {"oleaje_kw_m": 12.2, "hm0_m": 1.74, "te_s": 7.54, "horas": 192}}, {"type": "Feature", "geometry": {"type": "Point", "coordinates": [144.0, 32]}, "properties": {"oleaje_kw_m": 22.66, "hm0_m": 2.2, "te_s": 8.15, "horas": 192}}, {"type": "Feature", "geometry": {"type": "Point", "coordinates": [152.0, 32]}, "properties": {"oleaje_kw_m": 28.34, "hm0_m": 2.4, "te_s": 8.36, "horas": 192}}, {"type": "Feature", "geometry": {"type": "Point", "coordinates": [160.0, 32]}, "properties": {"oleaje_kw_m": 30.96, "hm0_m": 2.42, "te_s": 9.39, "horas": 192}}, {"type": "Feature", "geometry": {"type": "Point", "coordinates": [168.0, 32]}, "properties": {"oleaje_kw_m": 52.5, "hm0_m": 3.16, "te_s": 9.08, "horas": 192}}, {"type": "Feature", "geometry": {"type": "Point", "coordinates": [176.0, 32]}, "properties": {"oleaje_kw_m": 60.35, "hm0_m": 3.29, "te_s": 9.59, "horas": 192}}, {"type": "Feature", "geometry": {"type": "Point", "coordinates": [-176.0, 40]}, "properties": {"oleaje_kw_m": 171.7, "hm0_m": 4.42, "te_s": 9.41, "horas": 192}}, {"type": "Feature", "geometry": {"type": "Point", "coordinates": [-168.0, 40]}, "properties": {"oleaje_kw_m": 165.76, "hm0_m": 4.02, "te_s": 9.18, "horas": 192}}, {"type": "Feature", "geometry": {"type": "Point", "coordinates": [-160.0, 40]}, "properties": {"oleaje_kw_m": 95.54, "hm0_m": 3.5, "te_s": 9.73, "horas": 192}}, {"type": "Feature", "geometry": {"type": "Point", "coordinates": [-152.0, 40]}, "properties": {"oleaje_kw_m": 62.11, "hm0_m": 3.23, "te_s": 9.89, "horas": 192}}, {"type": "Feature", "geometry": {"type": "Point", "coordinates": [-144.0, 40]}, "properties": {"oleaje_kw_m": 61.08, "hm0_m": 3.22, "te_s": 10.15, "horas": 192}}, {"type": "Feature", "geometry": {"type": "Point", "coordinates": [-136.0, 40]}, "properties": {"oleaje_kw_m": 54.96, "hm0_m": 2.98, "te_s": 10.21, "horas": 192}}, {"type": "Feature", "geometry": {"type": "Point", "coordinates": [-128.0, 40]}, "properties": {"oleaje_kw_m": 45.97, "hm0_m": 2.75, "te_s": 9.72, "horas": 192}}, {"type": "Feature", "geometry": {"type": "Point", "coordinates": [-72.0, 40]}, "properties": {"oleaje_kw_m": 19.83, "hm0_m": 2.01, "te_s": 6.76, "horas": 192}}, {"type": "Feature", "geometry": {"type": "Point", "coordinates": [-64.0, 40]}, "properties": {"oleaje_kw_m": 41.94, "hm0_m": 2.54, "te_s": 8.3, "horas": 192}}, {"type": "Feature", "geometry": {"type": "Point", "coordinates": [-56.0, 40]}, "properties": {"oleaje_kw_m": 62.33, "hm0_m": 3.26, "te_s": 8.74, "horas": 192}}, {"type": "Feature", "geometry": {"type": "Point", "coordinates": [-48.0, 40]}, "properties": {"oleaje_kw_m": 44.2, "hm0_m": 3.17, "te_s": 8.46, "horas": 192}}, {"type": "Feature", "geometry": {"type": "Point", "coordinates": [-40.0, 40]}, "properties": {"oleaje_kw_m": 46.57, "hm0_m": 2.85, "te_s": 9.39, "horas": 192}}, {"type": "Feature", "geometry": {"type": "Point", "coordinates": [-32.0, 40]}, "properties": {"oleaje_kw_m": 46.92, "hm0_m": 2.83, "te_s": 10.02, "horas": 192}}, {"type": "Feature", "geometry": {"type": "Point", "coordinates": [-24.0, 40]}, "properties": {"oleaje_kw_m": 56.94, "hm0_m": 3.15, "te_s": 9.49, "horas": 192}}, {"type": "Feature", "geometry": {"type": "Point", "coordinates": [-16.0, 40]}, "properties": {"oleaje_kw_m": 52.62, "hm0_m": 2.97, "te_s": 9.63, "horas": 192}}, {"type": "Feature", "geometry": {"type": "Point", "coordinates": [0.0, 40]}, "properties": {"oleaje_kw_m": 0.6, "hm0_m": 0.47, "te_s": 4.33, "horas": 192}}, {"type": "Feature", "geometry": {"type": "Point", "coordinates": [8.0, 40]}, "properties": {"oleaje_kw_m": 15.21, "hm0_m": 1.61, "te_s": 6.13, "horas": 192}}, {"type": "Feature", "geometry": {"type": "Point", "coordinates": [16.0, 40]}, "properties": {"oleaje_kw_m": 2.82, "hm0_m": 0.75, "te_s": 5.61, "horas": 192}}, {"type": "Feature", "geometry": {"type": "Point", "coordinates": [24.0, 40]}, "properties": {"oleaje_kw_m": 1.07, "hm0_m": 0.55, "te_s": 4.12, "horas": 192}}, {"type": "Feature", "geometry": {"type": "Point", "coordinates": [120.0, 40]}, "properties": {"oleaje_kw_m": 0.35, "hm0_m": 0.4, "te_s": 3.36, "horas": 192}}, {"type": "Feature", "geometry": {"type": "Point", "coordinates": [128.0, 40]}, "properties": {"oleaje_kw_m": 1.06, "hm0_m": 0.57, "te_s": 5.02, "horas": 192}}, {"type": "Feature", "geometry": {"type": "Point", "coordinates": [136.0, 40]}, "properties": {"oleaje_kw_m": 15.9, "hm0_m": 1.99, "te_s": 6.49, "horas": 192}}, {"type": "Feature", "geometry": {"type": "Point", "coordinates": [144.0, 40]}, "properties": {"oleaje_kw_m": 24.49, "hm0_m": 2.32, "te_s": 7.84, "horas": 192}}, {"type": "Feature", "geometry": {"type": "Point", "coordinates": [152.0, 40]}, "properties": {"oleaje_kw_m": 47.0, "hm0_m": 3.0, "te_s": 8.46, "horas": 192}}, {"type": "Feature", "geometry": {"type": "Point", "coordinates": [160.0, 40]}, "properties": {"oleaje_kw_m": 42.64, "hm0_m": 2.89, "te_s": 8.83, "horas": 192}}, {"type": "Feature", "geometry": {"type": "Point", "coordinates": [168.0, 40]}, "properties": {"oleaje_kw_m": 80.5, "hm0_m": 3.5, "te_s": 9.23, "horas": 192}}, {"type": "Feature", "geometry": {"type": "Point", "coordinates": [176.0, 40]}, "properties": {"oleaje_kw_m": 143.34, "hm0_m": 4.45, "te_s": 9.69, "horas": 192}}, {"type": "Feature", "geometry": {"type": "Point", "coordinates": [-176.0, 48]}, "properties": {"oleaje_kw_m": 101.92, "hm0_m": 3.74, "te_s": 8.93, "horas": 192}}, {"type": "Feature", "geometry": {"type": "Point", "coordinates": [-168.0, 48]}, "properties": {"oleaje_kw_m": 81.54, "hm0_m": 3.35, "te_s": 8.91, "horas": 192}}, {"type": "Feature", "geometry": {"type": "Point", "coordinates": [-160.0, 48]}, "properties": {"oleaje_kw_m": 77.24, "hm0_m": 3.55, "te_s": 9.41, "horas": 192}}, {"type": "Feature", "geometry": {"type": "Point", "coordinates": [-152.0, 48]}, "properties": {"oleaje_kw_m": 79.38, "hm0_m": 3.63, "te_s": 9.7, "horas": 192}}, {"type": "Feature", "geometry": {"type": "Point", "coordinates": [-144.0, 48]}, "properties": {"oleaje_kw_m": 64.21, "hm0_m": 3.31, "te_s": 9.9, "horas": 192}}, {"type": "Feature", "geometry": {"type": "Point", "coordinates": [-136.0, 48]}, "properties": {"oleaje_kw_m": 50.06, "hm0_m": 2.92, "te_s": 10.25, "horas": 192}}, {"type": "Feature", "geometry": {"type": "Point", "coordinates": [-128.0, 48]}, "properties": {"oleaje_kw_m": 44.12, "hm0_m": 2.7, "te_s": 10.08, "horas": 192}}, {"type": "Feature", "geometry": {"type": "Point", "coordinates": [-88.0, 48]}, "properties": {"oleaje_kw_m": 1.78, "hm0_m": 0.81, "te_s": 3.84, "horas": 192}}, {"type": "Feature", "geometry": {"type": "Point", "coordinates": [-64.0, 48]}, "properties": {"oleaje_kw_m": 10.59, "hm0_m": 1.38, "te_s": 5.02, "horas": 192}}, {"type": "Feature", "geometry": {"type": "Point", "coordinates": [-48.0, 48]}, "properties": {"oleaje_kw_m": 44.75, "hm0_m": 2.88, "te_s": 9.09, "horas": 192}}, {"type": "Feature", "geometry": {"type": "Point", "coordinates": [-40.0, 48]}, "properties": {"oleaje_kw_m": 62.07, "hm0_m": 3.34, "te_s": 9.0, "horas": 192}}, {"type": "Feature", "geometry": {"type": "Point", "coordinates": [-32.0, 48]}, "properties": {"oleaje_kw_m": 89.39, "hm0_m": 3.91, "te_s": 9.31, "horas": 192}}, {"type": "Feature", "geometry": {"type": "Point", "coordinates": [-24.0, 48]}, "properties": {"oleaje_kw_m": 108.17, "hm0_m": 4.37, "te_s": 9.53, "horas": 192}}, {"type": "Feature", "geometry": {"type": "Point", "coordinates": [-16.0, 48]}, "properties": {"oleaje_kw_m": 107.17, "hm0_m": 4.34, "te_s": 9.49, "horas": 192}}, {"type": "Feature", "geometry": {"type": "Point", "coordinates": [-8.0, 48]}, "properties": {"oleaje_kw_m": 88.47, "hm0_m": 3.75, "te_s": 9.42, "horas": 192}}, {"type": "Feature", "geometry": {"type": "Point", "coordinates": [144.0, 48]}, "properties": {"oleaje_kw_m": 6.66, "hm0_m": 1.2, "te_s": 6.26, "horas": 144}}, {"type": "Feature", "geometry": {"type": "Point", "coordinates": [152.0, 48]}, "properties": {"oleaje_kw_m": 20.22, "hm0_m": 2.04, "te_s": 7.9, "horas": 192}}, {"type": "Feature", "geometry": {"type": "Point", "coordinates": [160.0, 48]}, "properties": {"oleaje_kw_m": 50.54, "hm0_m": 2.95, "te_s": 9.22, "horas": 192}}, {"type": "Feature", "geometry": {"type": "Point", "coordinates": [168.0, 48]}, "properties": {"oleaje_kw_m": 75.0, "hm0_m": 3.34, "te_s": 9.38, "horas": 192}}, {"type": "Feature", "geometry": {"type": "Point", "coordinates": [176.0, 48]}, "properties": {"oleaje_kw_m": 104.86, "hm0_m": 3.98, "te_s": 9.09, "horas": 192}}, {"type": "Feature", "geometry": {"type": "Point", "coordinates": [-176.0, 56]}, "properties": {"oleaje_kw_m": 13.88, "hm0_m": 1.71, "te_s": 7.74, "horas": 192}}, {"type": "Feature", "geometry": {"type": "Point", "coordinates": [-168.0, 56]}, "properties": {"oleaje_kw_m": 13.27, "hm0_m": 1.82, "te_s": 7.14, "horas": 192}}, {"type": "Feature", "geometry": {"type": "Point", "coordinates": [-152.0, 56]}, "properties": {"oleaje_kw_m": 31.97, "hm0_m": 2.58, "te_s": 8.79, "horas": 192}}, {"type": "Feature", "geometry": {"type": "Point", "coordinates": [-144.0, 56]}, "properties": {"oleaje_kw_m": 34.8, "hm0_m": 2.54, "te_s": 9.75, "horas": 192}}, {"type": "Feature", "geometry": {"type": "Point", "coordinates": [-136.0, 56]}, "properties": {"oleaje_kw_m": 32.23, "hm0_m": 2.38, "te_s": 10.19, "horas": 192}}, {"type": "Feature", "geometry": {"type": "Point", "coordinates": [-80.0, 56]}, "properties": {"oleaje_kw_m": 0.72, "hm0_m": 0.5, "te_s": 4.22, "horas": 96}}, {"type": "Feature", "geometry": {"type": "Point", "coordinates": [-56.0, 56]}, "properties": {"oleaje_kw_m": 35.24, "hm0_m": 2.28, "te_s": 8.24, "horas": 192}}, {"type": "Feature", "geometry": {"type": "Point", "coordinates": [-48.0, 56]}, "properties": {"oleaje_kw_m": 62.34, "hm0_m": 2.96, "te_s": 9.14, "horas": 192}}, {"type": "Feature", "geometry": {"type": "Point", "coordinates": [-40.0, 56]}, "properties": {"oleaje_kw_m": 62.67, "hm0_m": 3.04, "te_s": 9.09, "horas": 192}}, {"type": "Feature", "geometry": {"type": "Point", "coordinates": [-32.0, 56]}, "properties": {"oleaje_kw_m": 65.0, "hm0_m": 3.15, "te_s": 9.07, "horas": 192}}, {"type": "Feature", "geometry": {"type": "Point", "coordinates": [-24.0, 56]}, "properties": {"oleaje_kw_m": 59.14, "hm0_m": 3.34, "te_s": 8.96, "horas": 192}}, {"type": "Feature", "geometry": {"type": "Point", "coordinates": [-16.0, 56]}, "properties": {"oleaje_kw_m": 56.91, "hm0_m": 3.22, "te_s": 9.36, "horas": 192}}, {"type": "Feature", "geometry": {"type": "Point", "coordinates": [-8.0, 56]}, "properties": {"oleaje_kw_m": 41.29, "hm0_m": 2.74, "te_s": 9.25, "horas": 192}}, {"type": "Feature", "geometry": {"type": "Point", "coordinates": [0.0, 56]}, "properties": {"oleaje_kw_m": 25.58, "hm0_m": 2.25, "te_s": 7.22, "horas": 192}}, {"type": "Feature", "geometry": {"type": "Point", "coordinates": [8.0, 56]}, "properties": {"oleaje_kw_m": 24.32, "hm0_m": 2.09, "te_s": 6.42, "horas": 192}}, {"type": "Feature", "geometry": {"type": "Point", "coordinates": [16.0, 56]}, "properties": {"oleaje_kw_m": 6.25, "hm0_m": 1.3, "te_s": 4.69, "horas": 192}}, {"type": "Feature", "geometry": {"type": "Point", "coordinates": [144.0, 56]}, "properties": {"oleaje_kw_m": 5.09, "hm0_m": 1.39, "te_s": 6.6, "horas": 96}}, {"type": "Feature", "geometry": {"type": "Point", "coordinates": [152.0, 56]}, "properties": {"oleaje_kw_m": 10.52, "hm0_m": 1.47, "te_s": 7.27, "horas": 192}}, {"type": "Feature", "geometry": {"type": "Point", "coordinates": [168.0, 56]}, "properties": {"oleaje_kw_m": 37.2, "hm0_m": 2.46, "te_s": 8.75, "horas": 192}}, {"type": "Feature", "geometry": {"type": "Point", "coordinates": [176.0, 56]}, "properties": {"oleaje_kw_m": 26.55, "hm0_m": 2.29, "te_s": 8.52, "horas": 192}}, {"type": "Feature", "geometry": {"type": "Point", "coordinates": [-176.0, 64]}, "properties": {"oleaje_kw_m": 4.25, "hm0_m": 0.75, "te_s": 8.59, "horas": 96}}, {"type": "Feature", "geometry": {"type": "Point", "coordinates": [-168.0, 64]}, "properties": {"oleaje_kw_m": 3.54, "hm0_m": 1.14, "te_s": 5.17, "horas": 96}}, {"type": "Feature", "geometry": {"type": "Point", "coordinates": [-80.0, 64]}, "properties": {"oleaje_kw_m": 0.67, "hm0_m": 0.54, "te_s": 3.96, "horas": 96}}, {"type": "Feature", "geometry": {"type": "Point", "coordinates": [-64.0, 64]}, "properties": {"oleaje_kw_m": 2.07, "hm0_m": 0.83, "te_s": 5.88, "horas": 96}}, {"type": "Feature", "geometry": {"type": "Point", "coordinates": [-56.0, 64]}, "properties": {"oleaje_kw_m": 17.57, "hm0_m": 2.05, "te_s": 7.23, "horas": 192}}, {"type": "Feature", "geometry": {"type": "Point", "coordinates": [-40.0, 64]}, "properties": {"oleaje_kw_m": 33.01, "hm0_m": 2.35, "te_s": 8.76, "horas": 192}}, {"type": "Feature", "geometry": {"type": "Point", "coordinates": [-32.0, 64]}, "properties": {"oleaje_kw_m": 38.06, "hm0_m": 2.69, "te_s": 8.43, "horas": 192}}, {"type": "Feature", "geometry": {"type": "Point", "coordinates": [-24.0, 64]}, "properties": {"oleaje_kw_m": 19.5, "hm0_m": 2.12, "te_s": 7.9, "horas": 192}}, {"type": "Feature", "geometry": {"type": "Point", "coordinates": [-16.0, 64]}, "properties": {"oleaje_kw_m": 7.08, "hm0_m": 1.15, "te_s": 8.71, "horas": 192}}, {"type": "Feature", "geometry": {"type": "Point", "coordinates": [-8.0, 64]}, "properties": {"oleaje_kw_m": 35.58, "hm0_m": 2.68, "te_s": 8.68, "horas": 192}}, {"type": "Feature", "geometry": {"type": "Point", "coordinates": [0.0, 64]}, "properties": {"oleaje_kw_m": 33.26, "hm0_m": 2.67, "te_s": 8.05, "horas": 192}}, {"type": "Feature", "geometry": {"type": "Point", "coordinates": [8.0, 64]}, "properties": {"oleaje_kw_m": 22.12, "hm0_m": 1.99, "te_s": 8.92, "horas": 192}}]}