{"type": "FeatureCollection", "fuente": "GMRT (Global Multi-Resolution Topography), Lamont-Doherty Earth Observatory", "estado": "verificado", "banda_m": [30, 60], "features": [{"type": "Feature", "geometry": {"type": "LineString", "coordinates": [[-76.18, 9.4439], [-76.18, 9.45288]]}, "properties": {"rumbo": "N", "profundidad_m": -30.0, "distancia_km": 6.5}}, {"type": "Feature", "geometry": {"type": "LineString", "coordinates": [[-76.18, 9.45288], [-76.18, 9.46186]]}, "properties": {"rumbo": "N", "profundidad_m": -33.0, "distancia_km": 7.5}}, {"type": "Feature", "geometry": {"type": "LineString", "coordinates": [[-76.18, 9.46186], [-76.18, 9.47085]]}, "properties": {"rumbo": "N", "profundidad_m": -37.0, "distancia_km": 8.5}}, {"type": "Feature", "geometry": {"type": "LineString", "coordinates": [[-76.18, 9.47085], [-76.18, 9.47983]]}, "properties": {"rumbo": "N", "profundidad_m": -40.5, "distancia_km": 9.5}}, {"type": "Feature", "geometry": {"type": "LineString", "coordinates": [[-76.18, 9.47983], [-76.18, 9.48881]]}, "properties": {"rumbo": "N", "profundidad_m": -43.0, "distancia_km": 10.5}}, {"type": "Feature", "geometry": {"type": "LineString", "coordinates": [[-76.18, 9.48881], [-76.18, 9.4978]]}, "properties": {"rumbo": "N", "profundidad_m": -45.5, "distancia_km": 11.5}}, {"type": "Feature", "geometry": {"type": "LineString", "coordinates": [[-76.18, 9.4978], [-76.18, 9.50678]]}, "properties": {"rumbo": "N", "profundidad_m": -48.5, "distancia_km": 12.5}}, {"type": "Feature", "geometry": {"type": "LineString", "coordinates": [[-76.18, 9.50678], [-76.18, 9.51576]]}, "properties": {"rumbo": "N", "profundidad_m": -51.5, "distancia_km": 13.5}}, {"type": "Feature", "geometry": {"type": "LineString", "coordinates": [[-76.18, 9.51576], [-76.18, 9.52475]]}, "properties": {"rumbo": "N", "profundidad_m": -55.0, "distancia_km": 14.5}}, {"type": "Feature", "geometry": {"type": "LineString", "coordinates": [[-76.18, 9.52475], [-76.18, 9.53373]]}, "properties": {"rumbo": "N", "profundidad_m": -58.0, "distancia_km": 15.5}}, {"type": "Feature", "geometry": {"type": "LineString", "coordinates": [[-76.18, 9.53373], [-76.18, 9.54271]]}, "properties": {"rumbo": "N", "profundidad_m": -59.5, "distancia_km": 16.5}}, {"type": "Feature", "geometry": {"type": "LineString", "coordinates": [[-76.14516, 9.47299], [-76.14167, 9.48129]]}, "properties": {"rumbo": "NNE", "profundidad_m": -32.5, "distancia_km": 10.5}}, {"type": "Feature", "geometry": {"type": "LineString", "coordinates": [[-76.14167, 9.48129], [-76.13819, 9.48959]]}, "properties": {"rumbo": "NNE", "profundidad_m": -34.5, "distancia_km": 11.5}}, {"type": "Feature", "geometry": {"type": "LineString", "coordinates": [[-76.13819, 9.48959], [-76.1347, 9.49789]]}, "properties": {"rumbo": "NNE", "profundidad_m": -36.0, "distancia_km": 12.5}}, {"type": "Feature", "geometry": {"type": "LineString", "coordinates": [[-76.1347, 9.49789], [-76.13122, 9.50619]]}, "properties": {"rumbo": "NNE", "profundidad_m": -38.0, "distancia_km": 13.5}}, {"type": "Feature", "geometry": {"type": "LineString", "coordinates": [[-76.13122, 9.50619], [-76.12773, 9.51449]]}, "properties": {"rumbo": "NNE", "profundidad_m": -40.0, "distancia_km": 14.5}}, {"type": "Feature", "geometry": {"type": "LineString", "coordinates": [[-76.12773, 9.51449], [-76.12425, 9.52279]]}, "properties": {"rumbo": "NNE", "profundidad_m": -41.5, "distancia_km": 15.5}}, {"type": "Feature", "geometry": {"type": "LineString", "coordinates": [[-76.12425, 9.52279], [-76.12077, 9.53109]]}, "properties": {"rumbo": "NNE", "profundidad_m": -42.0, "distancia_km": 16.5}}, {"type": "Feature", "geometry": {"type": "LineString", "coordinates": [[-76.12077, 9.53109], [-76.11728, 9.53939]]}, "properties": {"rumbo": "NNE", "profundidad_m": -42.5, "distancia_km": 17.5}}, {"type": "Feature", "geometry": {"type": "LineString", "coordinates": [[-76.11728, 9.53939], [-76.1138, 9.54769]]}, "properties": {"rumbo": "NNE", "profundidad_m": -44.5, "distancia_km": 18.5}}, {"type": "Feature", "geometry": {"type": "LineString", "coordinates": [[-76.1138, 9.54769], [-76.11031, 9.55599]]}, "properties": {"rumbo": "NNE", "profundidad_m": -47.0, "distancia_km": 19.5}}, {"type": "Feature", "geometry": {"type": "LineString", "coordinates": [[-76.11031, 9.55599], [-76.10683, 9.56429]]}, "properties": {"rumbo": "NNE", "profundidad_m": -48.5, "distancia_km": 20.5}}, {"type": "Feature", "geometry": {"type": "LineString", "coordinates": [[-76.10683, 9.56429], [-76.10334, 9.57258]]}, "properties": {"rumbo": "NNE", "profundidad_m": -51.0, "distancia_km": 21.5}}, {"type": "Feature", "geometry": {"type": "LineString", "coordinates": [[-76.10334, 9.57258], [-76.09986, 9.58088]]}, "properties": {"rumbo": "NNE", "profundidad_m": -54.5, "distancia_km": 22.5}}, {"type": "Feature", "geometry": {"type": "LineString", "coordinates": [[-76.09986, 9.58088], [-76.09637, 9.58918]]}, "properties": {"rumbo": "NNE", "profundidad_m": -57.5, "distancia_km": 23.5}}, {"type": "Feature", "geometry": {"type": "LineString", "coordinates": [[-76.07055, 9.49798], [-76.06411, 9.50434]]}, "properties": {"rumbo": "NE", "profundidad_m": -30.0, "distancia_km": 17.5}}, {"type": "Feature", "geometry": {"type": "LineString", "coordinates": [[-76.06411, 9.50434], [-76.05767, 9.51069]]}, "properties": {"rumbo": "NE", "profundidad_m": -32.5, "distancia_km": 18.5}}, {"type": "Feature", "geometry": {"type": "LineString", "coordinates": [[-76.05767, 9.51069], [-76.05123, 9.51704]]}, "properties": {"rumbo": "NE", "profundidad_m": -33.5, "distancia_km": 19.5}}, {"type": "Feature", "geometry": {"type": "LineString", "coordinates": [[-76.05123, 9.51704], [-76.0448, 9.52339]]}, "properties": {"rumbo": "NE", "profundidad_m": -34.5, "distancia_km": 20.5}}, {"type": "Feature", "geometry": {"type": "LineString", "coordinates": [[-76.0448, 9.52339], [-76.03836, 9.52974]]}, "properties": {"rumbo": "NE", "profundidad_m": -35.5, "distancia_km": 21.5}}, {"type": "Feature", "geometry": {"type": "LineString", "coordinates": [[-76.03836, 9.52974], [-76.03192, 9.5361]]}, "properties": {"rumbo": "NE", "profundidad_m": -37.5, "distancia_km": 22.5}}, {"type": "Feature", "geometry": {"type": "LineString", "coordinates": [[-76.03192, 9.5361], [-76.02548, 9.54245]]}, "properties": {"rumbo": "NE", "profundidad_m": -39.5, "distancia_km": 23.5}}, {"type": "Feature", "geometry": {"type": "LineString", "coordinates": [[-76.02548, 9.54245], [-76.01904, 9.5488]]}, "properties": {"rumbo": "NE", "profundidad_m": -40.0, "distancia_km": 24.5}}, {"type": "Feature", "geometry": {"type": "LineString", "coordinates": [[-76.23151, 9.33918], [-76.23794, 9.33283]]}, "properties": {"rumbo": "SW", "profundidad_m": -33.5, "distancia_km": 8.5}}, {"type": "Feature", "geometry": {"type": "LineString", "coordinates": [[-76.23794, 9.33283], [-76.24438, 9.32648]]}, "properties": {"rumbo": "SW", "profundidad_m": -40.5, "distancia_km": 9.5}}, {"type": "Feature", "geometry": {"type": "LineString", "coordinates": [[-76.24438, 9.32648], [-76.25082, 9.32013]]}, "properties": {"rumbo": "SW", "profundidad_m": -41.0, "distancia_km": 10.5}}, {"type": "Feature", "geometry": {"type": "LineString", "coordinates": [[-76.25082, 9.32013], [-76.25726, 9.31378]]}, "properties": {"rumbo": "SW", "profundidad_m": -36.0, "distancia_km": 11.5}}, {"type": "Feature", "geometry": {"type": "LineString", "coordinates": [[-76.25726, 9.31378], [-76.2637, 9.30742]]}, "properties": {"rumbo": "SW", "profundidad_m": -32.5, "distancia_km": 12.5}}, {"type": "Feature", "geometry": {"type": "LineString", "coordinates": [[-76.2637, 9.30742], [-76.27014, 9.30107]]}, "properties": {"rumbo": "SW", "profundidad_m": -33.0, "distancia_km": 13.5}}, {"type": "Feature", "geometry": {"type": "LineString", "coordinates": [[-76.29589, 9.27566], [-76.30233, 9.26931]]}, "properties": {"rumbo": "SW", "profundidad_m": -30.5, "distancia_km": 18.5}}, {"type": "Feature", "geometry": {"type": "LineString", "coordinates": [[-76.30233, 9.26931], [-76.30877, 9.26296]]}, "properties": {"rumbo": "SW", "profundidad_m": -34.5, "distancia_km": 19.5}}, {"type": "Feature", "geometry": {"type": "LineString", "coordinates": [[-76.30877, 9.26296], [-76.3152, 9.25661]]}, "properties": {"rumbo": "SW", "profundidad_m": -37.0, "distancia_km": 20.5}}, {"type": "Feature", "geometry": {"type": "LineString", "coordinates": [[-76.3152, 9.25661], [-76.32164, 9.25026]]}, "properties": {"rumbo": "SW", "profundidad_m": -37.5, "distancia_km": 21.5}}, {"type": "Feature", "geometry": {"type": "LineString", "coordinates": [[-76.32164, 9.25026], [-76.32808, 9.2439]]}, "properties": {"rumbo": "SW", "profundidad_m": -35.0, "distancia_km": 22.5}}, {"type": "Feature", "geometry": {"type": "LineString", "coordinates": [[-76.32808, 9.2439], [-76.33452, 9.23755]]}, "properties": {"rumbo": "SW", "profundidad_m": -32.0, "distancia_km": 23.5}}, {"type": "Feature", "geometry": {"type": "LineString", "coordinates": [[-76.33452, 9.23755], [-76.34096, 9.2312]]}, "properties": {"rumbo": "SW", "profundidad_m": -31.0, "distancia_km": 24.5}}, {"type": "Feature", "geometry": {"type": "LineString", "coordinates": [[-76.28016, 9.39], [-76.28926, 9.39]]}, "properties": {"rumbo": "W", "profundidad_m": -42.0, "distancia_km": 11.5}}, {"type": "Feature", "geometry": {"type": "LineString", "coordinates": [[-76.28926, 9.39], [-76.29837, 9.39]]}, "properties": {"rumbo": "W", "profundidad_m": -53.0, "distancia_km": 12.5}}, {"type": "Feature", "geometry": {"type": "LineString", "coordinates": [[-76.29837, 9.39], [-76.30747, 9.39]]}, "properties": {"rumbo": "W", "profundidad_m": -55.0, "distancia_km": 13.5}}, {"type": "Feature", "geometry": {"type": "LineString", "coordinates": [[-76.30747, 9.39], [-76.31658, 9.39]]}, "properties": {"rumbo": "W", "profundidad_m": -48.5, "distancia_km": 14.5}}, {"type": "Feature", "geometry": {"type": "LineString", "coordinates": [[-76.31658, 9.39], [-76.32568, 9.39]]}, "properties": {"rumbo": "W", "profundidad_m": -36.0, "distancia_km": 15.5}}, {"type": "Feature", "geometry": {"type": "LineString", "coordinates": [[-76.34389, 9.39], [-76.353, 9.39]]}, "properties": {"rumbo": "W", "profundidad_m": -40.5, "distancia_km": 18.5}}, {"type": "Feature", "geometry": {"type": "LineString", "coordinates": [[-76.353, 9.39], [-76.3621, 9.39]]}, "properties": {"rumbo": "W", "profundidad_m": -58.0, "distancia_km": 19.5}}, {"type": "Feature", "geometry": {"type": "LineString", "coordinates": [[-76.21219, 9.42176], [-76.21863, 9.42811]]}, "properties": {"rumbo": "NW", "profundidad_m": -31.5, "distancia_km": 5.5}}, {"type": "Feature", "geometry": {"type": "LineString", "coordinates": [[-76.21863, 9.42811], [-76.22507, 9.43446]]}, "properties": {"rumbo": "NW", "profundidad_m": -46.0, "distancia_km": 6.5}}, {"type": "Feature", "geometry": {"type": "LineString", "coordinates": [[-76.22507, 9.43446], [-76.23151, 9.44082]]}, "properties": {"rumbo": "NW", "profundidad_m": -52.5, "distancia_km": 7.5}}, {"type": "Feature", "geometry": {"type": "LineString", "coordinates": [[-76.23151, 9.44082], [-76.23794, 9.44717]]}, "properties": {"rumbo": "NW", "profundidad_m": -55.5, "distancia_km": 8.5}}, {"type": "Feature", "geometry": {"type": "LineString", "coordinates": [[-76.23794, 9.44717], [-76.24438, 9.45352]]}, "properties": {"rumbo": "NW", "profundidad_m": -59.0, "distancia_km": 9.5}}, {"type": "Feature", "geometry": {"type": "LineString", "coordinates": [[-76.24438, 9.45352], [-76.25082, 9.45987]]}, "properties": {"rumbo": "NW", "profundidad_m": -59.5, "distancia_km": 10.5}}, {"type": "Feature", "geometry": {"type": "LineString", "coordinates": [[-76.25082, 9.45987], [-76.25726, 9.46622]]}, "properties": {"rumbo": "NW", "profundidad_m": -59.0, "distancia_km": 11.5}}, {"type": "Feature", "geometry": {"type": "LineString", "coordinates": [[-76.25726, 9.46622], [-76.2637, 9.47258]]}, "properties": {"rumbo": "NW", "profundidad_m": -58.5, "distancia_km": 12.5}}, {"type": "Feature", "geometry": {"type": "LineString", "coordinates": [[-76.2637, 9.47258], [-76.27014, 9.47893]]}, "properties": {"rumbo": "NW", "profundidad_m": -57.5, "distancia_km": 13.5}}, {"type": "Feature", "geometry": {"type": "LineString", "coordinates": [[-76.27014, 9.47893], [-76.27657, 9.48528]]}, "properties": {"rumbo": "NW", "profundidad_m": -58.5, "distancia_km": 14.5}}, {"type": "Feature", "geometry": {"type": "LineString", "coordinates": [[-76.19394, 9.4232], [-76.19742, 9.4315]]}, "properties": {"rumbo": "NNW", "profundidad_m": -31.5, "distancia_km": 4.5}}, {"type": "Feature", "geometry": {"type": "LineString", "coordinates": [[-76.19742, 9.4315], [-76.20091, 9.4398]]}, "properties": {"rumbo": "NNW", "profundidad_m": -38.0, "distancia_km": 5.5}}, {"type": "Feature", "geometry": {"type": "LineString", "coordinates": [[-76.20091, 9.4398], [-76.20439, 9.4481]]}, "properties": {"rumbo": "NNW", "profundidad_m": -41.5, "distancia_km": 6.5}}, {"type": "Feature", "geometry": {"type": "LineString", "coordinates": [[-76.20439, 9.4481], [-76.20788, 9.45639]]}, "properties": {"rumbo": "NNW", "profundidad_m": -45.0, "distancia_km": 7.5}}, {"type": "Feature", "geometry": {"type": "LineString", "coordinates": [[-76.20788, 9.45639], [-76.21136, 9.46469]]}, "properties": {"rumbo": "NNW", "profundidad_m": -49.5, "distancia_km": 8.5}}, {"type": "Feature", "geometry": {"type": "LineString", "coordinates": [[-76.21136, 9.46469], [-76.21484, 9.47299]]}, "properties": {"rumbo": "NNW", "profundidad_m": -53.0, "distancia_km": 9.5}}, {"type": "Feature", "geometry": {"type": "LineString", "coordinates": [[-76.21484, 9.47299], [-76.21833, 9.48129]]}, "properties": {"rumbo": "NNW", "profundidad_m": -54.5, "distancia_km": 10.5}}, {"type": "Feature", "geometry": {"type": "LineString", "coordinates": [[-76.21833, 9.48129], [-76.22181, 9.48959]]}, "properties": {"rumbo": "NNW", "profundidad_m": -56.0, "distancia_km": 11.5}}, {"type": "Feature", "geometry": {"type": "LineString", "coordinates": [[-76.22181, 9.48959], [-76.2253, 9.49789]]}, "properties": {"rumbo": "NNW", "profundidad_m": -58.0, "distancia_km": 12.5}}, {"type": "Feature", "geometry": {"type": "LineString", "coordinates": [[-76.2253, 9.49789], [-76.22878, 9.50619]]}, "properties": {"rumbo": "NNW", "profundidad_m": -59.0, "distancia_km": 13.5}}, {"type": "Feature", "geometry": {"type": "LineString", "coordinates": [[-76.22878, 9.50619], [-76.23227, 9.51449]]}, "properties": {"rumbo": "NNW", "profundidad_m": -59.5, "distancia_km": 14.5}}]}